name,address,level,name_clean,is_thrombectomy_center,geocode,latitude,longitude,name_cleaned
Städtisches Klinikum Dresden StO Friedrichstadt,"Manitiusstraße 2, 01067 Dresden, Sachsen",Überregionale Stroke Unit,städtisches klinikum dresden sto friedrichstadt,True,"2, Manitiusstraße, Friedrichstadt, Altstadt, Dresden, Sachsen, 01067, Deutschland",51.0573263,13.7151557,städtisches klinikum dresden sto friedrichstadt
Universitätsklinikum Carl Gustav Carus,"Fetscherstr. 74, 01307 Dresden, Sachsen",Überregionale Comprehensive Stroke Unit,universitätsklinikum carl gustav carus,True,"Universitätsklinikum Carl Gustav Carus, 74, Fetscherstraße, Johannstadt-Nord, Johannstadt, Altstadt, Dresden, Sachsen, 01307, Deutschland",51.0565463,13.7825911,universitätsklinikum carl gustav carus
ELBLANDKLINIKUM Meißen,"Leitmeritzer Bogen 20, 01662 Meißen, Sachsen",Regionale Comprehensive Stroke Unit,elblandklinikum meißen,False,"Leitmeritzer Bogen, Bohnitzsch, Nassau, Meißen, Sachsen, 01662, Deutschland",51.1712976,13.5013353,elblandklinikum meißen
Sana Klinikum Niederlausitz gGmbH,"Krankenhausstr. 10, 01968 Senftenberg, Brandenburg",Regionale Stroke Unit,sana klinikum niederlausitz ggmbh,False,"10, Krankenhausstraße, Senftenberg - Zły Komorow, Oberspreewald-Lausitz - Górne Błota-Łužyca, Brandenburg, 01968, Deutschland",51.5275144,14.000257,sana klinikum niederlausitz ggmbh
Städtisches Klinikum Görlitz gGmbH,"Girbigsdorfer Str. 1-3, 02828 Görlitz, Sachsen",Regionale Stroke Unit,städtisches klinikum görlitz ggmbh,False,"Haus 1, 1-3, Girbigsdorfer Straße, Königshufen, Görlitz, Sachsen, 02828, Deutschland",51.1619671,14.9707099,städtisches klinikum görlitz ggmbh
Lausitzer Seenland Klinikum,"Maria-Grollmuß-Str. 10, 02977 Hoyerswerda, Sachsen",Regionale Comprehensive Stroke Unit,lausitzer seenland klinikum,False,"Lausitzer Seenland Klinikum, 10, Maria-Grollmuß-Straße, WK VIII, Kühnicht - Kinajcht, Hoyerswerda - Wojerecy, Bautzen - Budyšin, Sachsen, 02977, Deutschland",51.4420507,14.2724085,lausitzer seenland klinikum
Carl-Thiem-Klinikum Cottbus gGmbH,"Thiemstr. 111, 03048 Cottbus, Brandenburg",Überregionale Stroke Unit,carl-thiem-klinikum cottbus ggmbh,True,"111, Thiemstraße, Spremberger Vorstadt - Grodkojske pśedměsto, Spremberger Vorstadt, Cottbus - Chóśebuz, Brandenburg, 03048, Deutschland",51.7412386,14.3197683,carl-thiem-klinikum cottbus ggmbh
Universitätsklinikum Leipzig AöR,"Hohe Straße 16, 04103 Leipzig, Sachsen",Überregionale Stroke Unit,universitätsklinikum leipzig aör,True,"16, Hohe Straße, Zentrum-Süd, Mitte, Leipzig, Sachsen, 04107, Deutschland",51.3291724,12.3784626,universitätsklinikum leipzig aör
Klinikum St. Georg gGmbH,"Stauffacherweg 1a, 04129 Leipzig, Sachsen",Überregionale Stroke Unit,klinikum st georg ggmbh,False,"1a, Stauffacherweg, Eutritzsch, Nord, Leipzig, Sachsen, 04129, Deutschland",51.387661,12.3796142,klinikum st. georg ggmbh
Sächsisches Krankenhaus Altscherbitz,"Leipziger Str. 59, 04435 Schkeuditz, Sachsen",Regionale Stroke Unit,sächsisches krankenhaus altscherbitz,False,"59, Äußere Leipziger Straße, Modelwitz, Schkeuditz, Nordsachsen, Sachsen, 04435, Deutschland",51.3872436,12.2522969,sächsisches krankenhaus altscherbitz
Sana Klinik Borna,"Pawlowstraße 45, 04552 Borna, Sachsen",Überregionale Stroke Unit,sana klinik borna,True,"45, Pawlowstraße, Borna Nord, Kesselshain Siedlung, Borna, Landkreis Leipzig, Sachsen, 04552, Deutschland",51.1362928,12.503006,sana klinik borna
Klinikum Altenburger Land GmbH,"Am Waldessaum 10, 04600 Altenburg, Thüringen",Überregionale Stroke Unit,klinikum altenburger land gmbh,True,"Klinikum Altenburger Land, 10, Am Waldessaum, Südost, Altenburg, Altenburger Land, Thüringen, 04600, Deutschland",50.9723974,12.4410229,klinikum altenburger land gmbh
Fachkrankenhaus Hubertusburg gGmbH,"Hubertusburg 1, 04779 Wermsdorf, Sachsen",Regionale Stroke Unit,fachkrankenhaus hubertusburg ggmbh,False,"Hubertusburg, 1, Hubertusburg, Reckwitz, Wermsdorf, Nordsachsen, Sachsen, 04779, Deutschland",51.2775647,12.9385814,fachkrankenhaus hubertusburg ggmbh
BG Klinikum Bergmannstrost Halle,"Barbarastraße 12, 06112 Halle, Sachsen-Anhalt",Überregionale Comprehensive Stroke Unit,bg klinikum bergmannstrost halle,False,"12, Barbarastraße, Damaschkestraße, Halle (Saale), Sachsen-Anhalt, 06110, Deutschland",51.4597981,11.9830014,bg klinikum bergmannstrost halle
Universitätsklinikum Halle (Saale),"Ernst-Grube-Str. 27, 06120 Halle, Sachsen-Anhalt",Überregionale Stroke Unit,universitätsklinikum halle (saale),True,"27, Ernst-Grube-Straße, Weinberg-Campus, Kröllwitz, Halle (Saale), Sachsen-Anhalt, 06120, Deutschland",51.5002888,11.9369767,universitätsklinikum halle (saale)
Krankenhaus Martha-Maria Halle-Dölau gGmbH,"Röntgenstr. 1, 06120 Halle (Saale), Sachsen-Anhalt",Überregionale Comprehensive Stroke Unit,krankenhaus martha-maria halle-dölau ggmbh,False,"Krankenhaus Martha Maria, 1, Röntgenstraße, Dölau, Halle (Saale), Sachsen-Anhalt, 06120, Deutschland",51.5031341,11.8762831,krankenhaus martha-maria halle-dölau ggmbh
AMEOS Klinikum Bernburg,"Kustrenaer Str. 98, 06406 Bernburg, Sachsen-Anhalt",Regionale Comprehensive Stroke Unit,ameos klinikum bernburg,False,"Ameos Klinikum Bernburg, 98a, Kustrenaer Straße, Bergstadt, Bernburg, Salzlandkreis, Sachsen-Anhalt, 06406, Deutschland",51.7823736,11.7355717,ameos klinikum bernburg
SRH Klinikum Naumburg,"Humboldtstr. 31, 06618 Naumburg, Sachsen-Anhalt",Regionale Stroke Unit,srh klinikum naumburg,False,"SRH Klinikum Naumburg, 31, Humboldtstraße, Siedlungsviertel, Henne, Naumburg (Saale), Burgenlandkreis, Sachsen-Anhalt, 06618, Deutschland",51.1610137,11.8149587,srh klinikum naumburg
"Thüringen-Kliniken ""Georgius Agricola""","Hugo-Trinckler-Str. 2-4, 07407 Rudolstadt, Thüringen",Telemedizinisch vernetzte Stroke Unit,"thüringen-kliniken ""georgius agricola""",False,"Thüringen-Kliniken ""Georgius Agricola""- Standort Rudolstadt, 2-4, Hugo-Trinckler-Straße, Volkstedt, Rudolstadt, Kamsdorf, Landkreis Saalfeld-Rudolstadt, Thüringen, 07407, Deutschland",50.7072187,11.3155595,"thüringen-kliniken ""georgius agricola"""
SRH Wald-Klinikum Gera GmbH,"Straße des Friedens 122, 07548 Gera, Thüringen",Überregionale Comprehensive Stroke Unit,srh wald-klinikum gera gmbh,True,"SRH Wald-Klinikum Gera, 122, Straße des Friedens, Debschwitz, Ernsee, Gera, Thüringen, 07548, Deutschland",50.8685761,12.0515681,srh wald-klinikum gera gmbh
Universitätsklinikum Jena,"Am Klinikum 1, 07747 Jena, Thüringen",Überregionale Stroke Unit,universitätsklinikum jena,True,"Universitätsklinikum Jena, 1, Am Klinikum, Lobeda Ost, Neulobeda, Jena, Thüringen, 07747, Deutschland",50.8853944,11.620631,universitätsklinikum jena
Heinrich-Braun-Klinikum gGmbH - StO Zwickau,"Karl-Keil-Str. 35, 08060 Zwickau, Sachsen",Überregionale Stroke Unit,heinrich-braun-klinikum ggmbh - sto zwickau,True,"Heinrich-Braun-Krankenhaus, 35, Karl-Keil-Straße, Marienthal West, Zwickau-West, Zwickau, Sachsen, 08060, Deutschland",50.7225016,12.4311037,heinrich-braun-klinikum ggmbh - sto zwickau
Heinrich-Braun-Klinikum gGmbH - StO Zwickau,"Werdauer Str. 68, 08060 Zwickau, Sachsen",Regionale Stroke Unit,heinrich-braun-klinikum ggmbh - sto zwickau,False,"Heinrich-Braun-Klinikum, Standort Werdauer Straße, 68, Werdauer Straße, Marienthal Ost, Zwickau-West, Zwickau, Langenweißbach, Zwickau, Sachsen, 08060, Deutschland",50.7223864,12.4717234,heinrich-braun-klinikum ggmbh - sto zwickau
Helios Klinikum Aue,"Röntgenstr. 8, 08280 Aue, Sachsen",Regionale Comprehensive Stroke Unit,helios klinikum aue,False,"8, Röntgenstraße, Aue, Aue-Bad Schlema, Erzgebirgskreis, Sachsen, 08280, Deutschland",50.5945415,12.7132218,helios klinikum aue
Helios Vogtland-Klinikum Plauen,"Reusaer Straße 1, 08529 Plauen, Sachsen",Regionale Stroke Unit,helios vogtland-klinikum plauen,False,"Reusaer Straße, Reichenbacher Vorstadt, Plauen, Vogtlandkreis, Sachsen, 08529, Deutschland",50.491896,12.1592147,helios vogtland-klinikum plauen
DIAKOMED - Diakoniekrankenhaus Chemnitzer Land gGmbH,"Limbacher Str. 19b, 09232 Hartmannsdorf, Sachsen",Telemedizinisch vernetzte Stroke Unit,diakomed - diakoniekrankenhaus chemnitzer land ggmbh,False,"Diakomed, 19b, Limbacher Straße, Hartmannsdorf, Mittelsachsen, Sachsen, 09232, Deutschland",50.8830028,12.7926678,diakomed - diakoniekrankenhaus chemnitzer land ggmbh
Kreiskrankenhaus Freiberg gGmbH,"Donatsring 20, 09599 Freiberg, Sachsen",Regionale Stroke Unit,kreiskrankenhaus freiberg ggmbh,False,"Kreiskrankenhaus Freiberg, 20, Donatsring, Jakobiviertel, Altstadt, Freiberg, Mittelsachsen, Sachsen, 09599, Deutschland",50.9206902,13.3516027,kreiskrankenhaus freiberg ggmbh
"Charité-Universitätsmedizin Berlin, Campus Mitte (CCM)","Charitéplatz 1, 10117 Berlin, Berlin",Regionale Stroke Unit,charité-universitätsmedizin berlin campus mitte (ccm),True,"Campus Charité Mitte, 1, Charitéplatz, Dorotheenstadt, Mitte, Berlin, 10117, Deutschland",52.5258523,13.3777575,"charité-universitätsmedizin berlin, campus mitte (ccm)"
Vivantes Klinikum im Friedrichshain,"Matthiasstraße 2, 10249 Berlin, Berlin",Überregionale Stroke Unit,vivantes klinikum im friedrichshain,True,"2, Matthiasstraße, Friedrichshain, Friedrichshain-Kreuzberg, Berlin, 10249, Deutschland",52.5234091,13.4397117,vivantes klinikum im friedrichshain
Evangelisches Krankenhaus Königin Elisabeth Herzberge gGmbH,"Herzbergstr. 79, 10365 Berlin, Berlin",Regionale Comprehensive Stroke Unit,evangelisches krankenhaus königin elisabeth herzberge ggmbh,False,"Evangelisches Krankenhaus Königin Elisabeth Herzberge, 79, Herzbergstraße, Lichtenberg, Berlin, 10365, Deutschland",52.5279222,13.508992,evangelisches krankenhaus königin elisabeth herzberge ggmbh
Vivantes Auguste-Viktoria-Klinikum,"Rubensstr. 125, 12157 Berlin, Berlin",Regionale Stroke Unit,vivantes auguste-viktoria-klinikum,False,"Auguste-Viktoria-Klinikum, 125, Rubensstraße, Schöneberg, Steglitz-Zehlendorf, Berlin, Teltow, 12157, Deutschland",52.4624325,13.3463907,vivantes auguste-viktoria-klinikum
Charité Campus Benjamin Franklin,"Hindenburgdamm 30, 12203 Berlin, Berlin",Überregionale Stroke Unit,charité campus benjamin franklin,False,"Charité – Campus Benjamin Franklin, 30, Hindenburgdamm, Lichterfelde West, Lichterfelde, Steglitz-Zehlendorf, Berlin, 12203, Deutschland",52.4419083,13.3205439,charité campus benjamin franklin
Vivantes Klinikum Neukölln,"Rudower Str. 48, 12351 Berlin, Berlin",Überregionale Stroke Unit,vivantes klinikum neukölln,True,"Vivantes Klinikum - Neukölln, 48, Rudower Straße, Buckow 2, Buckow, Neukölln, Berlin, 12351, Deutschland",52.4372244,13.4592239,vivantes klinikum neukölln
DRK Kliniken Berlin Köpenick,"Salvador-Allende-Str. 2-8, 12559 Berlin, Berlin",Regionale Stroke Unit,drk kliniken berlin köpenick,True,"Hospiz Köpenick, 2-8, Salvador-Allende-Straße, Siedlung Kämmereiheide, Köpenick, Treptow-Köpenick, Berlin, 12559, Deutschland",52.4389862,13.5944808,drk kliniken berlin köpenick
BG Klinikum Unfallkrankenhaus Berlin,"Oberfeldstr. 54a, 12683 Berlin, Berlin",Überregionale Stroke Unit,bg klinikum unfallkrankenhaus berlin,True,"54a, Oberfeldstraße, Biesdorf-Nord, Biesdorf, Marzahn-Hellersdorf, Berlin, 12683, Deutschland",52.5255877,13.5568577,bg klinikum unfallkrankenhaus berlin
Park-Klinik Weißensee GmbH,"Schönstr. 80, 13086 Berlin, Berlin",Regionale Stroke Unit,park-klinik weißensee gmbh,False,"80, Schönstraße, Weißensee, Pankow, Berlin, 13086, Deutschland",52.554916,13.4518485,park-klinik weißensee gmbh
HELIOS Klinikum Berlin-Buch,"Theodor-Brugsch-Straße 40, 13125 Berlin, Berlin",Überregionale Stroke Unit,helios klinikum berlin-buch,True,"40, Theodor-Brugsch-Straße, Buch II, Buch, Pankow, Berlin, 13125, Deutschland",52.6295151,13.5030717,helios klinikum berlin-buch
Jüdisches Krankenhaus Berlin,"Heinz-Galinski-Str. 1, 13347 Berlin, Berlin",Überregionale Stroke Unit,jüdisches krankenhaus berlin,True,"Jüdisches Krankenhaus Berlin, 1, Heinz-Galinski-Straße, Gesundbrunnen, Mitte, Berlin, 13347, Deutschland",52.5553772,13.3702144,jüdisches krankenhaus berlin
"Charité, Campus Virchow-Klinikum","Augustenburger Platz 1, 13353 Berlin, Berlin",Überregionale Stroke Unit,charité campus virchow-klinikum,False,"Deutsches Herzzentrum der Charité - Standort Augustenburger Platz, 1, Augustenburger Platz, Brüsseler Kiez, Wedding, Mitte, Berlin, 13353, Deutschland",52.5422251,13.3473481,"charité, campus virchow-klinikum"
Vivantes Humboldt-Klinikum,"Am Nordgraben 2, 13509 Berlin, Berlin",Überregionale Stroke Unit,vivantes humboldt-klinikum,False,"Vivantes Humboldt-Klinikum, 2, Am Nordgraben, Borsigwalde, Reinickendorf, Berlin, 13509, Deutschland",52.589759,13.3077559,vivantes humboldt-klinikum
Vivantes Klinikum Spandau,"Neue Bergstr. 5, 13585 Berlin, Berlin",Überregionale Stroke Unit,vivantes klinikum spandau,False,"5, Neue Bergstraße, Spandau, Berlin, 13585, Deutschland",52.5497296,13.2026425,vivantes klinikum spandau
Schlosspark-Klinik Charlottenburg,"Heubnerweg 2, 14059 Berlin, Berlin",Überregionale Stroke Unit,schlosspark-klinik charlottenburg,True,"Schlosspark-Klinik, 2, Heubnerweg, Charlottenburg, Charlottenburg-Wilmersdorf, Berlin, 14059, Deutschland",52.5223226,13.2896786,schlosspark-klinik charlottenburg
Klinikum Ernst von Bergmann,"Charlottenstr. 55, 14467 Potsdam, Brandenburg",Überregionale Stroke Unit,klinikum ernst von bergmann,True,"55, Charlottenstraße, Historische Innenstadt, Potsdam, Brandenburg, 14467, Deutschland",52.400309,13.0630757,klinikum ernst von bergmann
Alexianer St. Josefs-Krankenhaus Potsdam-Sanssouci,"Allee nach Sanssouci 4, 14471 Potsdam, Brandenburg",Regionale Stroke Unit,alexianer st josefs-krankenhaus potsdam-sanssouci,False,"4, Allee nach Sanssouci, Auf dem Kiewitt, Brandenburger Vorstadt, Potsdam, Brandenburg, 14471, Deutschland",52.4002955,13.0449715,alexianer st. josefs-krankenhaus potsdam-sanssouci
Klinikum Frankfurt (Oder) GmbH,"Am Klinikum 16, 15236 Frankfurt (Oder), Brandenburg",Überregionale Stroke Unit,klinikum frankfurt (oder) gmbh,False,"16, Am Klinikum, Markendorf, Frankfurt (Oder), Jacobsdorf, Brandenburg, 15236, Deutschland",52.2992516,14.4763605,klinikum frankfurt (oder) gmbh
Immanuel Klinik Rüdersdorf,"Seebad 82/83, 15562 Rüdersdorf, Brandenburg",Regionale Stroke Unit,immanuel klinik rüdersdorf,False,"Immanuel Klinik Rüdersdorf, 82-83, Seebad, Seebad Rüdersdorf, Rüdersdorf, Rüdersdorf bei Berlin, Fredersdorf-Vogelsdorf, Märkisch-Oderland, Brandenburg, 15562, Deutschland",52.4546413,13.7728508,immanuel klinik rüdersdorf
Asklepios Fachklinikum Lübben,"Luckauer Str. 17, 15907 Lübben, Brandenburg",Regionale Stroke Unit,asklepios fachklinikum lübben,False,"Asklepios Fachklinikum Lübben, 17, Luckauer Straße, Lübben (Spreewald), Dahme-Spreewald, Brandenburg, 15907, Deutschland",51.9357225,13.8867272,asklepios fachklinikum lübben
GLG Martin Gropius Krankenhaus GmbH,"Rudolf-Breitscheid-Str. 81, 16225 Eberswalde, Brandenburg",Überregionale Stroke Unit,glg martin gropius krankenhaus gmbh,True,"81, Rudolf-Breitscheid-Straße, Eberswalde 1, Eberswalde, Barnim, Brandenburg, 16225, Deutschland",52.8279421,13.797554,glg martin gropius krankenhaus gmbh
Oberhavel Klinik Hennigsdorf,"Marwitzer Str. 91, 16761 Hennigsdorf, Brandenburg",Regionale Stroke Unit,oberhavel klinik hennigsdorf,False,"Oberhavelklinik Hennigsdorf, 91, Marwitzer Straße, Hennigsdorf, Oberhavel, Brandenburg, 16761, Deutschland",52.6557823,13.1913924,oberhavel klinik hennigsdorf
Universitätsklinikum Ruppin-Brandenburg,"Fehrbelliner Str. 109A, 16816 Neuruppin, Brandenburg",Regionale Stroke Unit,universitätsklinikum ruppin-brandenburg,False,"109 A, Fehrbelliner Straße, Bütow, Neuruppin, Ostprignitz-Ruppin, Brandenburg, 16816, Deutschland",52.9087011,12.8025077,universitätsklinikum ruppin-brandenburg
Dietrich-Bonhoeffer-Klinikum,"Salvador-Allende-Str. 55, 17036 Neubrandenburg, Mecklenburg-Vorpommern",Überregionale Stroke Unit,dietrich-bonhoeffer-klinikum,False,"55, Salvador-Allende-Straße, Oststadt, Neubrandenburg, Mecklenburgische Seenplatte, Mecklenburg-Vorpommern, 17036, Deutschland",53.5464445,13.2971619,dietrich-bonhoeffer-klinikum
AMEOS Klinikum Ueckermünde,"Ravensteinstr. 23, 17373 Ueckermünde, Mecklenburg-Vorpommern",Regionale Stroke Unit,ameos klinikum ueckermünde,False,"AMEOS Diakonie-Klinikum Ueckermünde, 23, Ravensteinstraße, Ueckermünde, Vorpommern-Greifswald, Mecklenburg-Vorpommern, 17373, Deutschland",53.7407362,14.0220984,ameos klinikum ueckermünde
Universitätsmedizin Greifswald,"Ferdinand-Sauerbruch-Str., 17489 Greifswald, Mecklenburg-Vorpommern",Überregionale Stroke Unit,universitätsmedizin greifswald,True,"Ferdinand-Sauerbruch-Straße, Nördliche Mühlenvorstadt, Greifswald, Vorpommern-Greifswald, Mecklenburg-Vorpommern, 17489, Deutschland",54.086646,13.4072372,universitätsmedizin greifswald
Universitätsmedizin Rostock - Campus Schillingallee,"Strempelstraße 1, 18057 Rostock, Mecklenburg-Vorpommern",Überregionale Stroke Unit,universitätsmedizin rostock - campus schillingallee,True,"1, Strempelstraße, Thünenviertel, Hansaviertel, Rostock, Mecklenburg-Vorpommern, 18057, Deutschland",54.0866246,12.1022833,universitätsmedizin rostock - campus schillingallee
KMG Klinikum Güstrow GmbH,"Friedrich-Trendelenburg-Allee 1, 18273 Güstrow, Mecklenburg-Vorpommern",Regionale Stroke Unit,kmg klinikum güstrow gmbh,False,"1, Friedrich-Trendelenburg-Allee, Distelberg, Suckow, Güstrow, Landkreis Rostock, Mecklenburg-Vorpommern, 18273, Deutschland",53.8109937,12.2003523,kmg klinikum güstrow gmbh
HELIOS Hanseklinikum Stralsund GmbH,"Große Parower Str. 47-53, 18435 Stralsund, Mecklenburg-Vorpommern",Überregionale Stroke Unit,helios hanseklinikum stralsund gmbh,False,"HELIOS Hanseklinikum Stralsund, 47-53, Große Parower Straße, Kniepervorstadt, Knieper, Stralsund, Vorpommern-Rügen, Mecklenburg-Vorpommern, 18435, Deutschland",54.3284098,13.0816926,helios hanseklinikum stralsund gmbh
Sana-Krankenhaus Rügen GmbH,"Calandstr. 7/8, 18528 Bergen auf Rügen, Mecklenburg-Vorpommern",Telemedizinisch vernetzte Stroke Unit,sana-krankenhaus rügen gmbh,False,"Sana-Krankenhaus Rügen, 7-8, Calandstraße, Bergen Süd, Bergen auf Rügen, Vorpommern-Rügen, Mecklenburg-Vorpommern, 18528, Deutschland",54.4196619,13.4289453,sana-krankenhaus rügen gmbh
HELIOS Kliniken Schwerin GmbH,"Wismarsche Str. 393-397, 19055 Schwerin, Mecklenburg-Vorpommern",Überregionale Stroke Unit,helios kliniken schwerin gmbh,True,"Helios Kliniken Schwerin, 393-397, Wismarsche Straße, Sachsenberg, Lewenberg, Schwerin, Mecklenburg-Vorpommern, 19055, Deutschland",53.6514219,11.4082224,helios kliniken schwerin gmbh
MEDICLIN Krankenhaus Plau am See,"Quetziner Str. 88, 19395 Plau am See, Mecklenburg-Vorpommern",Überregionale Stroke Unit,mediclin krankenhaus plau am see,False,"MediClin Krankenhaus Plau am See, 88, Quetziner Straße, Plau am See, Ludwigslust-Parchim, Mecklenburg-Vorpommern, 19395, Deutschland",53.4784696,12.2843483,mediclin krankenhaus plau am see
Asklepios Klinik St. Georg,"Lohmühlenstr. 1, 20099 Hamburg, Hamburg",Überregionale Stroke Unit,asklepios klinik st georg,False,"1, Lohmühlenstraße, St. Georg, Hamburg-Mitte, Hamburg, 20099, Deutschland",53.5609898,10.0141156,asklepios klinik st. georg
Universitätsklinikum Hamburg-Eppendorf,"Butenfeld 31, 20246 Hamburg, Hamburg",Überregionale Stroke Unit,universitätsklinikum hamburg-eppendorf,True,"31, Butenfeld, Lokstedt, Eimsbüttel, Hamburg, 22529, Deutschland",53.592422,9.9707057,universitätsklinikum hamburg-eppendorf
Agaplesion Bethesda Krankenhaus Bergedorf gGmbH,"Glindersweg 80, 21029 Hamburg, Hamburg",Regionale Stroke Unit,agaplesion bethesda krankenhaus bergedorf ggmbh,False,"Bethesda Krankenhaus Bergedorf, 80, Glindersweg, Bergedorf, Hamburg, 21029, Deutschland",53.4857786,10.2360022,agaplesion bethesda krankenhaus bergedorf ggmbh
Asklepios Klinikum Harburg,"Eißendorfer Pferdeweg 52, 21075 Hamburg, Hamburg",Überregionale Stroke Unit,asklepios klinikum harburg,True,"Gebäude 2, 52, Eißendorfer Pferdeweg, Heimfeld, Harburg, Hamburg, 21075, Deutschland",53.4606785,9.9503979,asklepios klinikum harburg
Krankenhaus Buchholz,"Steinbecker Str. 44, 21244 Buchholz, Niedersachsen",Regionale Stroke Unit,krankenhaus buchholz,False,"Krankenhaus Buchholz in der Nordheide, 44, Steinbecker Straße, Steinbeck, Buchholz in der Nordheide, Harburg, Niedersachsen, 21244, Deutschland",53.3332728,9.8716353,krankenhaus buchholz
Städtisches Klinikum Lüneburg gGmbH,"Bögelstr. 24, 21339 Lüneburg, Niedersachsen",Überregionale Stroke Unit,städtisches klinikum lüneburg ggmbh,True,"24, Bögelstraße, Mittelfeld, Lüneburg, Niedersachsen, 21339, Deutschland",53.2412017,10.3959525,städtisches klinikum lüneburg ggmbh
Krankenhaus Winsen,"Friedrich-Lichtenauer-Allee 1, 21423 Winsen (Luhe), Niedersachsen",Telemedizinisch vernetzte Stroke Unit,krankenhaus winsen,False,"Krankenhaus Winsen, 1, Friedrich-Lichtenauer-Allee, Roydorf, Winsen (Luhe), Harburg, Niedersachsen, 21423, Deutschland",53.3505593,10.2001667,krankenhaus winsen
Elbe Kliniken Stade-Buxtehude gGmbH,"Bremervörder Str. 118, 21682 Stade, Niedersachsen",Regionale Stroke Unit,elbe kliniken stade-buxtehude ggmbh,False,"118, Bremervörder Straße, Hahle, Stade, Niedersachsen, 21682, Deutschland",53.597637,9.4414813,elbe kliniken stade-buxtehude ggmbh
Asklepios Klinik Wandsbek,"Alphonsstr. 14, 22043 Hamburg, Hamburg",Überregionale Stroke Unit,asklepios klinik wandsbek,False,"Asklepios Klinik Wandsbek, 14, Alphonsstraße, Marienthal, Wandsbek, Hamburg, 22043, Deutschland",53.5699008,10.0880663,asklepios klinik wandsbek
Kath. Marienkrankenhaus Hamburg gGmbH,"Alfredstr. 9, 22087 Hamburg, Hamburg",Regionale Stroke Unit,kath marienkrankenhaus hamburg ggmbh,False,"Marienkrankenhaus, 9, Alfredstraße, Hohenfelde, Hamburg-Nord, Hamburg, 22087, Deutschland",53.559033,10.0307399,kath. marienkrankenhaus hamburg ggmbh
Asklepios Klinik Barmbek,"Zwanckweg 1, 22307 Hamburg, Hamburg",Überregionale Stroke Unit,asklepios klinik barmbek,True,"1, Zwanckweg, Ohlsdorf, Hamburg-Nord, Hamburg, 22337, Deutschland",53.6084111,10.0356562,asklepios klinik barmbek
Asklepios Klinik Nord - Heidberg,"Tangstedter Landstr. 400, 22417 Hamburg, Hamburg",Überregionale Stroke Unit,asklepios klinik nord - heidberg,False,"Asklepios Klinik Nord Heidberg, 400, Tangstedter Landstraße, Langenhorn, Hamburg-Nord, Hamburg, 22417, Deutschland",53.6741411,10.0301284,asklepios klinik nord - heidberg
Albertinen Krankenhaus,"Süntelstr. 11a, 22457 Hamburg, Hamburg",Regionale Stroke Unit,albertinen krankenhaus,False,"Albertinen Krankenhaus, 11a, Süntelstraße, Schnelsen, Eimsbüttel, Hamburg, 22457, Deutschland",53.6308503,9.9047575,albertinen krankenhaus
Asklepios Klinik Altona,"Paul-Ehrlich-Str. 1, 22763 Hamburg, Hamburg",Überregionale Stroke Unit,asklepios klinik altona,True,"Asklepios Klinik Altona, 1, Paul-Ehrlich-Straße, Othmarschen, Altona, Hamburg, 22763, Deutschland",53.5549245,9.9023394,asklepios klinik altona
"Universitätsklinikum Schleswig-Holstein, Campus Lübeck","Stadtweide 14, 23562 Lübeck, Schleswig-Holstein",Überregionale Stroke Unit,universitätsklinikum schleswig-holstein campus lübeck,True,"14, Stadtweide, Strecknitz, Sankt Jürgen, Lübeck, Schleswig-Holstein, 23562, Deutschland",53.8403127,10.7058554,"universitätsklinikum schleswig-holstein, campus lübeck"
Sana Kliniken Lübeck GmbH,"Kronsforder Allee 71-73, 23560 Lübeck, Schleswig-Holstein",Überregionale Stroke Unit,sana kliniken lübeck gmbh,True,"71-73, Kronsforder Allee, In Süd, Hüxtertor / Mühlentor / Gärtnergasse, Sankt Jürgen, Lübeck, Schleswig-Holstein, 23560, Deutschland",53.8488706,10.6879537,sana kliniken lübeck gmbh
Schön Klinik Neustadt,"Bültsaal 66, 23730 Neustadt in Holstein, Schleswig-Holstein",Regionale Stroke Unit,schön klinik neustadt,True,"66, Bültsaal, Neustadt in Holstein, Kreis Ostholstein, Schleswig-Holstein, 23730, Deutschland",54.0929809,10.8288892,schön klinik neustadt
AMEOS Klinikum Oldenburg,"Mühlenkamp 5, 23758 Oldenburg in Holstein, Schleswig-Holstein",Regionale Stroke Unit,ameos klinikum oldenburg,False,"AMEOS Klinikum Oldenburg, 5, Mühlenkamp, Oldenburg in Holstein, Kreis Ostholstein, Schleswig-Holstein, 23758, Deutschland",54.2900511,10.8799957,ameos klinikum oldenburg
Segeberger Kliniken,"Krankenhausstr. 2, 23795 Bad Segeberg, Schleswig-Holstein",Regionale Stroke Unit,segeberger kliniken,False,"Allgemeine Klinik Bad Segeberg, 2, Krankenhausstraße, Bad Segeberg, Kreis Segeberg, Schleswig-Holstein, 23795, Deutschland",53.9412295,10.3090167,segeberger kliniken
Sana HANSE-Klinikum Wismar GmbH,"Friedrich-Wolf-Straße 26, 23966 Wismar, Mecklenburg-Vorpommern",Regionale Stroke Unit,sana hanse-klinikum wismar gmbh,False,"26, Friedrich-Wolf-Straße, Dammhusen, Friedenshof, Wismar, Nordwestmecklenburg, Mecklenburg-Vorpommern, 23966, Deutschland",53.8858997,11.4397824,sana hanse-klinikum wismar gmbh
"Universitätsklinikum Schleswig-Holstein, Campus Kiel","Arnold-Heller-Str. 3, 24105 Kiel, Schleswig-Holstein",Überregionale Stroke Unit,universitätsklinikum schleswig-holstein campus kiel,True,"Klinik für Augenheilkunde, UK S-H, Campus Kiel, 3, Arnold-Heller-Straße, Düsternbrook, Kiel, Schleswig-Holstein, 24105, Deutschland",54.328446,10.1448833,"universitätsklinikum schleswig-holstein, campus kiel"
FEK - Friedrich-Ebert-Krankenhaus Neumünster GmbH,"Friesenstr. 11, 24534 Neumünster, Schleswig-Holstein",Regionale Stroke Unit,fek - friedrich-ebert-krankenhaus neumünster gmbh,True,"Friedrich-Ebert-Krankenhaus, 11, Friesenstraße, Innenstadt, Neumünster, Schleswig-Holstein, 24534, Deutschland",54.0652666,9.9929898,fek - friedrich-ebert-krankenhaus neumünster gmbh
Schön Klinik Rendsburg,"Lilienstr. 20-28, 24768 Rendsburg, Schleswig-Holstein",Überregionale Stroke Unit,schön klinik rendsburg,True,"Schön Klinik Rendsburg, 20-28, Lilienstraße, Neuwerk, Rendsburg-Mitte, Rendsburg, Kreis Rendsburg-Eckernförde, Schleswig-Holstein, 24768, Deutschland",54.2972385,9.6578833,schön klinik rendsburg
HELIOS Klinikum Schleswig,"St. Jürgener Str. 1-3, 24837 Schleswig, Schleswig-Holstein",Regionale Stroke Unit,helios klinikum schleswig,False,"HELIOS Klinikum Schleswig, 1-3, Sankt-Jürgener-Straße, Sankt Jürgen, Schleswig, Kreis Schleswig-Flensburg, Schleswig-Holstein, 24837, Deutschland",54.5250901,9.5658283,helios klinikum schleswig
DIAKO Krankenhaus Flensburg,"Knuthstr. 14, 24939 Flensburg, Schleswig-Holstein",Überregionale Stroke Unit,diako krankenhaus flensburg,True,"14, Knuthstraße, Duburg, Neustadt, Flensburg, Schleswig-Holstein, 24939, Deutschland",54.7907097,9.4266277,diako krankenhaus flensburg
"Regio Kliniken GmbH, Klinikum Pinneberg","Fahltskamp 74, 25421 Pinneberg, Schleswig-Holstein",Regionale Stroke Unit,regio kliniken gmbh klinikum pinneberg,False,"Regio Klinikum Pinneberg, 74, Fahltskamp, Thesdorf, Pinneberg, Kreis Pinneberg, Schleswig-Holstein, 25421, Deutschland",53.654252,9.8118103,"regio kliniken gmbh, klinikum pinneberg"
Klinikum Itzehoe,"Robert-Koch-Str. 1, 25524 Itzehoe, Schleswig-Holstein",Regionale Stroke Unit,klinikum itzehoe,False,"1, Robert-Koch-Straße, Tegelhörn, Itzehoe, Kreis Steinburg, Schleswig-Holstein, 25524, Deutschland",53.9438174,9.5055086,klinikum itzehoe
WKK Brunsbüttel und Heide gGmbH - Standort Heide,"Esmarchstr. 50, 25746 Heide, Schleswig-Holstein",Überregionale Stroke Unit,wkk brunsbüttel und heide ggmbh - standort heide,False,"Esmarchstr. 50, 25746 Heide, 50, Esmarchstraße, Heide, Kreis Dithmarschen, Schleswig-Holstein, 25746, Deutschland",54.1991651,9.0810799,wkk brunsbüttel und heide ggmbh - standort heide
Evangelisches Krankenhaus Oldenburg,"Steinweg 23, 26122 Oldenburg, Niedersachsen",Überregionale Stroke Unit,evangelisches krankenhaus oldenburg,True,"23, Steinweg, Haarenesch, Oldenburg, Niedersachsen, 26122, Deutschland",53.143248,8.2052132,evangelisches krankenhaus oldenburg
Nordwest-Krankenhaus Sanderbusch gGmbH,"Am Gut Sanderbusch 1, 26452 Sande, Niedersachsen",Regionale Stroke Unit,nordwest-krankenhaus sanderbusch ggmbh,False,"ADAC Luftrettungsstation Sanderbusch, 1, Am Gut Sanderbusch, Sanderbusch, Sande, Landkreis Friesland, Niedersachsen, 26452, Deutschland",53.5059502,8.0097048,nordwest-krankenhaus sanderbusch ggmbh
Ammerland-Klinik GmbH,"Lange Str. 38, 26655 Westerstede, Niedersachsen",Überregionale Stroke Unit,ammerland-klinik gmbh,False,"Bundeswehrkrankenhaus Westerstede, 38, Lange Straße, Halstrup, Hollwege, Westerstede, Landkreis Ammerland, Niedersachsen, 26655, Deutschland",53.2574925,7.9185221,ammerland-klinik gmbh
Klinikum Emden,"Bolardusstr. 20, 26721 Emden, Niedersachsen",Regionale Stroke Unit,klinikum emden,False,"Hans-Susemihl-Krankenhaus, 20, Bolardusstraße, Barenburg, Emden, Niedersachsen, 26721, Deutschland",53.3755539,7.2132143,klinikum emden
AGAPLESION Diakonieklinikum Rotenburg,"Elise-Averdieck-Str. 17, 27356 Rotenburg (Wümme), Niedersachsen",Überregionale Stroke Unit,agaplesion diakonieklinikum rotenburg,True,"Agaplesion Diakonieklinikum Rotenburg, 17, Elise-Averdieck-Straße, Imkersfeld, Rotenburg, Landkreis Rotenburg (Wümme), Niedersachsen, 27356, Deutschland",53.10522,9.412896,agaplesion diakonieklinikum rotenburg
Klinikum Bremerhaven-Reinkenheide gGmbH,"Postbrookstr. 103, 27574 Bremerhaven, Bremen",Überregionale Stroke Unit,klinikum bremerhaven-reinkenheide ggmbh,False,"Klinikum Bremerhaven-Reinkenheide, 103, Postbrookstraße, Schiffdorferdamm, Stadtbezirk Bremerhaven-Süd, Bremerhaven, Bremen, 27574, Deutschland",53.5377643,8.6367596,klinikum bremerhaven-reinkenheide ggmbh
"GESUNDHEIT NORD, Klinikum Bremen-Mitte","St.-Jürgen-Str. 1, 28177 Bremen, Bremen",Überregionale Stroke Unit,gesundheit nord klinikum bremen-mitte,True,"Klinikum Bremen-Mitte, 1, Sankt-Jürgen-Straße, Hulsberg, Östliche Vorstadt, Bremen-Ost, Bremen, 28205, Deutschland",53.0745692,8.840024,"gesundheit nord, klinikum bremen-mitte"
"GESUNDHEIT NORD, Klinikum Bremen-Nord","Hammersbecker Str. 228, 28755 Bremen, Bremen",Regionale Stroke Unit,gesundheit nord klinikum bremen-nord,False,"Klinikum Bremen-Nord, 228, Hammersbecker Straße, Rosenbusch, Beckedorf, Bremen, Landkreis Osterholz, Niedersachsen, 28755, Deutschland",53.183475,8.5942765,"gesundheit nord, klinikum bremen-nord"
Allgemeines Krankenhaus Celle,"Siemensplatz 4, 29223 Celle, Niedersachsen",Überregionale Stroke Unit,allgemeines krankenhaus celle,False,"Allgemeines Krankenhaus, 4, Siemensplatz, Hehlentor, Celle, Landkreis Celle, Niedersachsen, 29223, Deutschland",52.62889,10.0862561,allgemeines krankenhaus celle
Helios Klinikum Uelzen,"Hagenskamp 34, 29525 Uelzen, Niedersachsen",Regionale Stroke Unit,helios klinikum uelzen,False,"HELIOS Klinikum Uelzen, 34, Hagenskamp, Uelzen, Niedersachsen, 29525, Deutschland",52.9719771,10.5322858,helios klinikum uelzen
KRH Klinikum Nordstadt,"Haltenhoffstr. 41, 30167 Hannover, Niedersachsen",Überregionale Stroke Unit,krh klinikum nordstadt,True,"41, Haltenhoffstraße, Nordstadt, Nord, Hannover, Region Hannover, Niedersachsen, 30167, Deutschland",52.3918624,9.7119374,krh klinikum nordstadt
DIAKOVERE Friederikenstift,"Humboldtstr. 24, 30169 Hannover, Niedersachsen",Regionale Stroke Unit,diakovere friederikenstift,False,"24, Humboldtstraße, Calenberger Neustadt, Mitte, Hannover, Region Hannover, Niedersachsen, 30169, Deutschland",52.3704509,9.7228942,diakovere friederikenstift
DIAKOVERE Henriettenstift,"Marienstr. 72-90, 30171 Hannover, Niedersachsen",Regionale Stroke Unit,diakovere henriettenstift,False,"72-90, Marienstraße, Südstadt, Südstadt-Bult, Hannover, Region Hannover, Niedersachsen, 30171, Deutschland",52.3695618,9.7547913,diakovere henriettenstift
Medizinische Hochschule Hannover,"Carl-Neuberg-Str. 1, 30625 Hannover, Niedersachsen",Überregionale Stroke Unit,medizinische hochschule hannover,True,"Klinisch Diagnostische Labore und Transfusionsmedizin, Blutspendedienst, 1, Carl-Neuberg-Straße, Groß-Buchholz, Buchholz-Kleefeld, Hannover, Region Hannover, Niedersachsen, 30625, Deutschland",52.3842111,9.802795,medizinische hochschule hannover
KRH Klinikum Agnes Karll Laatzen,"Hildesheimer Str. 173, 30880 Laatzen, Niedersachsen",Regionale Stroke Unit,krh klinikum agnes karll laatzen,False,"173, Hildesheimer Straße, Grasdorf, Laatzen, Region Hannover, Niedersachsen, 30880, Deutschland",52.3070556,9.8001234,krh klinikum agnes karll laatzen
St. Bernward Krankenhaus,"Hinterer Brühl 21, 31134 Hildesheim, Niedersachsen",Überregionale Stroke Unit,st bernward krankenhaus,True,"21, Hinterer Brühl, Fachwerkviertel, Altstadt, Stadtmitte/Neustadt, Hildesheim, Landkreis Hildesheim, Niedersachsen, 31134, Deutschland",52.1472245,9.9490339,st. bernward krankenhaus
Agaplesion Ev. Klinikum Schaumburg gGmbH,"Vehler Straße 9, 31683 Ahnsen, Niedersachsen",Regionale Stroke Unit,agaplesion ev klinikum schaumburg ggmbh,False,"9, Vehler Straße, Ahnsen, Samtgemeinde Eilsen, Landkreis Schaumburg, Niedersachsen, 31708, Deutschland",52.2598794,9.0948592,agaplesion ev. klinikum schaumburg ggmbh
BDH-Klinik Hessisch Oldendorf,"Greitstr. 18-28, 31840 Hessisch-Oldendorf, Niedersachsen",Regionale Stroke Unit,bdh-klinik hessisch oldendorf,False,"BDH-Klinik Hessisch Oldendorf, 18-28, Greitstraße, Hessisch Oldendorf, Landkreis Hameln-Pyrmont, Niedersachsen, 31840, Deutschland",52.1740238,9.2503599,bdh-klinik hessisch oldendorf
KKHB Klinikum Herford,"Schwarzenmoorstr. 70, 32049 Herford, Nordrhein-Westfalen",Überregionale Stroke Unit,kkhb klinikum herford,False,"Schwarzenmoorstr. 123, 32049 Herford, 70, Schwarzenmoorstraße, Herford-Stadt, Herford, Kreis Herford, Nordrhein-Westfalen, 32049, Deutschland",52.1264193,8.7004549,kkhb klinikum herford
MKK Johannes Wesling Klinikum Minden,"Hans-Nolte-Str. 1, 32429 Minden, Nordrhein-Westfalen",Überregionale Stroke Unit,mkk johannes wesling klinikum minden,True,"Johannes Wesling Klinikum, 1, Hans-Nolte-Straße, Häverstädt, Minden, Kreis Minden-Lübbecke, Nordrhein-Westfalen, 32429, Deutschland",52.2612461,8.8890891,mkk johannes wesling klinikum minden
Klinikum Lippe GmbH,"Rintelner Str. 85, 32657 Lemgo, Nordrhein-Westfalen",Überregionale Stroke Unit,klinikum lippe gmbh,False,"85, Rintelner Straße, Lemgo, Kreis Lippe, Nordrhein-Westfalen, 32657, Deutschland",52.0365117,8.9019702,klinikum lippe gmbh
St. Vincenz-Krankenhaus GmbH,"Am Busdorf 2, 33098 Paderborn, Nordrhein-Westfalen",Regionale Stroke Unit,st vincenz-krankenhaus gmbh,True,"Am Busdorf 2, Am Busdorf, Paderborn, Kreis Paderborn, Nordrhein-Westfalen, 33098, Deutschland",51.7184446,8.7591599,st. vincenz-krankenhaus gmbh
Evangelisches Klinikum Bethel,"Burgsteig 13, 33617 Bielefeld, Nordrhein-Westfalen",Überregionale Stroke Unit,evangelisches klinikum bethel,True,"Haus Gilead I, 13, Burgsteig, Gadderbaum, Bielefeld, Nordrhein-Westfalen, 33617, Deutschland",52.0139033,8.5253601,evangelisches klinikum bethel
Klinikum Kassel GmbH,"Mönchebergstr. 60, 34125 Kassel, Hessen",Überregionale Stroke Unit,klinikum kassel gmbh,True,"60, Mönchebergstraße, Fasanenhof, Kassel, Hessen, 34125, Deutschland",51.3289446,9.5108521,klinikum kassel gmbh
"Universitätsklinikum Gießen und Marburg GmbH, StO Marburg","Baldingerstr. 1, 35043 Marburg, Hessen",Überregionale Stroke Unit,universitätsklinikum gießen und marburg gmbh sto marburg,True,"Universitätsklinikum Gießen und Marburg, 1, Baldingerstraße, Marburg, Landkreis Marburg-Biedenkopf, Hessen, 35043, Deutschland",50.8166057,8.8074844,"universitätsklinikum gießen und marburg gmbh, sto marburg"
Universitätsklinikum Gießen und Marburg - Standort Gießen,"Klinikstr. 33, 35385 Gießen, Hessen",Überregionale Stroke Unit,universitätsklinikum gießen und marburg - standort gießen,True,"Universitätsklinikum Gießen-Marburg, 33, Klinikstraße, Südviertel, Gießen, Landkreis Gießen, Hessen, 35392, Deutschland",50.575258,8.6655282,universitätsklinikum gießen und marburg - standort gießen
Dill-Lahn-Klinikum Wetzlar,"Forsthausstr. 1-3a, 35578 Wetzlar, Hessen",Regionale Stroke Unit,dill-lahn-klinikum wetzlar,False,"Forsthausstraße, Sturzkopf, Wetzlar, Lahn-Dill-Kreis, Hessen, 35578, Deutschland",50.5359021,8.5290186,dill-lahn-klinikum wetzlar
PD Dr. med. Christoph Best,"Weilstr. 14, 35789 Weilmünster, Hessen",Regionale Stroke Unit,pd dr med christoph best,False,"14, Weilstraße, Weilmünster, Landkreis Limburg-Weilburg, Hessen, 35789, Deutschland",50.4257777,8.3857721,pd dr. med. christoph best
Klinikum Fulda,"Pacelliallee 4, 36043 Fulda, Hessen",Überregionale Stroke Unit,klinikum fulda,True,"Universitätsmedizin Marburg Campus Fulda, 4, Pacelliallee, Ziehers-Süd, Fulda, Landkreis Fulda, Hessen, 36043, Deutschland",50.5467314,9.7057828,klinikum fulda
Klinikum Bad Hersfeld,"Seilerweg 29, 36251 Bad Hersfeld, Hessen",Regionale Stroke Unit,klinikum bad hersfeld,False,"29, Seilerweg, Bad Hersfeld, Landkreis Hersfeld-Rotenburg, Hessen, 36251, Deutschland",50.8759431,9.7134361,klinikum bad hersfeld
Klinikum Bad Salzungen GmbH,"Lindigallee 3, 36433 Bad Salzungen, Thüringen",Regionale Stroke Unit,klinikum bad salzungen gmbh,False,"Klinikum Bad Salzungen, 3, Lindigallee, Bad Salzungen, Wartburgkreis, Thüringen, 36433, Deutschland",50.8032602,10.2185891,klinikum bad salzungen gmbh
UMG Universitätsmedizin Göttingen,"Robert-Koch-Str. 40, 37075 Göttingen, Niedersachsen",Überregionale Stroke Unit,umg universitätsmedizin göttingen,True,"Universitätsmedizin Göttingen, 40, Robert-Koch-Straße, Sültebecksbreite, Weende / Deppoldshausen, Göttingen, Landkreis Göttingen, Niedersachsen, 37075, Deutschland",51.5508193,9.9428282,umg universitätsmedizin göttingen
KHWE - St. Ansgar Krankenhaus,"Brenkhäuser Str. 71, 37671 Höxter, Nordrhein-Westfalen",Regionale Stroke Unit,khwe - st ansgar krankenhaus,False,"71, Brenkhäuser Straße, Höxter, Kreis Höxter, Nordrhein-Westfalen, 37671, Deutschland",51.7850314,9.3653808,khwe - st. ansgar krankenhaus
Städtisches Klinikum Braunschweig,"Salzdahlumer Str. 90, 38126 Braunschweig, Niedersachsen",Überregionale Stroke Unit,städtisches klinikum braunschweig,True,"Salzdahlumer Straße 90, Schwartzkopffstraße, Südstadt, Südstadt-Rautheim-Mascherode, Braunschweig, Niedersachsen, 38126, Deutschland",52.2384278,10.5452476,städtisches klinikum braunschweig
Klinikum Wolfsburg,"Sauerbruchstr. 7, 38440 Wolfsburg, Niedersachsen",Regionale Stroke Unit,klinikum wolfsburg,False,"Klinikum der Stadt Wolfsburg, 7, Sauerbruchstraße, Klieversberg, Wolfsburg, Niedersachsen, 38440, Deutschland",52.4136733,10.7685967,klinikum wolfsburg
ASKLEPIOS Klinik Schildautal Seesen,"Tannenbusch 1, 38723 Seesen, Niedersachsen",Überregionale Stroke Unit,asklepios klinik schildautal seesen,False,"1, Tannenbusch, Seesen, Landkreis Goslar, Niedersachsen, 38723, Deutschland",51.8818859,10.2143123,asklepios klinik schildautal seesen
Harzklinikum Dorothea Christiane Erxleben Wernigerode,"Ilsenburger Str. 15, 38855 Wernigerode, Sachsen-Anhalt",Regionale Stroke Unit,harzklinikum dorothea christiane erxleben wernigerode,False,"Harz-Klinikum Wernigerode, 15, Ilsenburger Straße, Harzblick, Wernigerode, Landkreis Harz, Sachsen-Anhalt, 38855, Deutschland",51.8356769,10.7762577,harzklinikum dorothea christiane erxleben wernigerode
Universitätsklinikum Magdeburg A.ö.R.,"Leipziger Str. 44, 39120 Magdeburg, Sachsen-Anhalt",Überregionale Stroke Unit,universitätsklinikum magdeburg aör,True,"Haus 19: Mund-, Kiefer-, Gesichtschirurgie, 44, Leipziger Straße, Magdeburg, Sachsen-Anhalt, 39120, Deutschland",52.1012103,11.619966,universitätsklinikum magdeburg a.ö.r.
Klinikum Magdeburg gGmbH,"Birkenallee 34, 39130 Magdeburg, Sachsen-Anhalt",Überregionale Stroke Unit,klinikum magdeburg ggmbh,False,"34, Birkenallee, Neu Olvenstedt, Magdeburg, Sachsen-Anhalt, 39130, Deutschland",52.1586493,11.5794531,klinikum magdeburg ggmbh
Universitätsklinikum Düsseldorf AöR,"Moorenstr. 5, 40225 Düsseldorf, Nordrhein-Westfalen",Überregionale Comprehensive Stroke Unit,universitätsklinikum düsseldorf aör,True,"Universitätsklinikum Düsseldorf, 5, Moorenstraße, Bilk, Stadtbezirk 3, Düsseldorf, Nordrhein-Westfalen, 40225, Deutschland",51.1959679,6.7898208,universitätsklinikum düsseldorf aör
Marien Hospital Düsseldorf GmbH,"Rochusstr. 4, 40479 Düsseldorf, Nordrhein-Westfalen",Regionale Stroke Unit,marien hospital düsseldorf gmbh,False,"4, Rochusstraße, Pempelfort, Stadtbezirk 1, Düsseldorf, Nordrhein-Westfalen, 40479, Deutschland",51.2353021,6.7846623,marien hospital düsseldorf gmbh
"LVR-Klinikum Düsseldorf, Kliniken der Heinrich-Heine-Universität Düsseldorf","Bergische Landstr. 35, 40629 Düsseldorf, Nordrhein-Westfalen",Regionale Stroke Unit,lvr-klinikum düsseldorf kliniken der heinrich-heine-universität düsseldorf,False,"35, Bergische Landstraße, Gerresheim, Stadtbezirk 7, Düsseldorf, Nordrhein-Westfalen, 40629, Deutschland",51.2411702,6.8450655,"lvr-klinikum düsseldorf, kliniken der heinrich-heine-universität düsseldorf"
Kliniken Maria Hilf GmbH,"Viersener Str. 417, 41063 Mönchengladbach, Nordrhein-Westfalen",Überregionale Stroke Unit,kliniken maria hilf gmbh,True,"417, Viersener Straße, Großheide, Windberg, Nord, Mönchengladbach, Nordrhein-Westfalen, 41063, Deutschland",51.2168616,6.4186823,kliniken maria hilf gmbh
Johanna Etienne Krankenhaus,"Am Hasenberg 48, 41462 Neuss, Nordrhein-Westfalen",Überregionale Stroke Unit,johanna etienne krankenhaus,True,"48, Am Hasenberg, Buschhausen, Furth-Mitte, Neuss, Rhein-Kreis Neuss, Nordrhein-Westfalen, 41462, Deutschland",51.2136236,6.6609094,johanna etienne krankenhaus
Hermann-Josef-Krankenhaus,"Tenholter Str. 43, 41812 Erkelenz, Nordrhein-Westfalen",Regionale Stroke Unit,hermann-josef-krankenhaus,False,"43, Tenholter Straße, Bellinghoven, Erkelenz, Kreis Heinsberg, Nordrhein-Westfalen, 41812, Deutschland",51.0751406,6.3139125,hermann-josef-krankenhaus
Agaplesion Bethesda Krankenhaus Wuppertal gGmbH,"Hainstr. 35, 42109 Wuppertal, Nordrhein-Westfalen",Regionale Stroke Unit,agaplesion bethesda krankenhaus wuppertal ggmbh,False,"Bethesda Krankenhaus, 35, Hainstraße, Katernberg, Gemarkung Elberfeld, Uellendahl-Katernberg, Wuppertal, Nordrhein-Westfalen, 42109, Deutschland",51.268337,7.1304659,agaplesion bethesda krankenhaus wuppertal ggmbh
HELIOS Universitätsklinikum Wuppertal,"Heusnerstr. 26, 42283 Wuppertal, Nordrhein-Westfalen",Überregionale Stroke Unit,helios universitätsklinikum wuppertal,True,"26, Heusnerstraße, Sedansberg, Gemarkung Barmen, Wuppertal, Nordrhein-Westfalen, 42283, Deutschland",51.2742413,7.1762644,helios universitätsklinikum wuppertal
Sana-Klinikum Remscheid,"Burger Str. 211, 42859 Remscheid, Nordrhein-Westfalen",Regionale Stroke Unit,sana-klinikum remscheid,False,"211b, Burger Straße, Gemarkung Remscheid, Remscheid-Süd, Remscheid, Nordrhein-Westfalen, 42859, Deutschland",51.161546,7.1867887,sana-klinikum remscheid
Klinikum Dortmund gGmbH,"Beurhausstr. 70, 44137 Dortmund, Nordrhein-Westfalen",Überregionale Stroke Unit,klinikum dortmund ggmbh,True,"70, Beurhausstraße, Klinikviertel, Innenstadt West, Dortmund, Nordrhein-Westfalen, 44137, Deutschland",51.5087537,7.4527758,klinikum dortmund ggmbh
Klinikum Westfalen GmbH,"Am Knappschaftskrankenhaus 1, 44309 Dortmund, Nordrhein-Westfalen",Regionale Stroke Unit,klinikum westfalen gmbh,False,"Knappschaft Kliniken Dortmund, 1, Am Knappschaftskrankenhaus, Wambel, Brackel, Dortmund, Nordrhein-Westfalen, 44309, Deutschland",51.5202514,7.533175,klinikum westfalen gmbh
St. Marien Hospital Lünen,"Altstadtstr. 42, 44534 Lünen, Nordrhein-Westfalen",Überregionale Stroke Unit,st marien hospital lünen,False,"42, Altstadtstraße, Nordlünen, Lünen, Kreis Unna, Nordrhein-Westfalen, 44534, Deutschland",51.6203129,7.5178754,st. marien hospital lünen
Ev. Krankenhaus Castrop-Rauxel,"Grutholzallee 21, 44577 Castrop-Rauxel, Nordrhein-Westfalen",Regionale Stroke Unit,ev krankenhaus castrop-rauxel,False,"21, Grutholzallee, Rauxel, Rauxel-Süd, Castrop-Rauxel, Kreis Recklinghausen, Nordrhein-Westfalen, 44577, Deutschland",51.5674516,7.3197879,ev. krankenhaus castrop-rauxel
Ev. Krankenhaus Herne,"Wiescherstr. 24, 44623 Herne, Nordrhein-Westfalen",Regionale Comprehensive Stroke Unit,ev krankenhaus herne,False,"Evangelisches Krankenhaus Herne Mitte, 24, Wiescherstraße, Herne-Mitte, Herne, Nordrhein-Westfalen, 44623, Deutschland",51.5338179,7.2307044,ev. krankenhaus herne
"Katholisches Klinikum Bochum, St. Josef-Hospital","Gudrunstr. 56, 44791 Bochum, Nordrhein-Westfalen",Überregionale Comprehensive Stroke Unit,katholisches klinikum bochum st josef-hospital,True,"B, 56, Gudrunstraße, Grumme, Bochum-Mitte, Bochum, Nordrhein-Westfalen, 44791, Deutschland",51.4940103,7.2291566,"katholisches klinikum bochum, st. josef-hospital"
Universitätsklinikum Knappschaftskrankenhaus Bochum,"In der Schornau 64, 44892 Bochum, Nordrhein-Westfalen",Überregionale Stroke Unit,universitätsklinikum knappschaftskrankenhaus bochum,True,"64, In der Schornau, Langendreerholz, Langendreer, Bochum-Ost, Bochum, Nordrhein-Westfalen, 44892, Deutschland",51.4621523,7.326658,universitätsklinikum knappschaftskrankenhaus bochum
Alfried Krupp Krankenhaus,"Alfried-Krupp-Str. 21, 45131 Essen, Nordrhein-Westfalen",Überregionale Stroke Unit,alfried krupp krankenhaus,False,"Alfried-Krupp-Krankenhaus, 21, Alfried-Krupp-Straße, Rüttenscheid, Stadtbezirk II, Essen, Nordrhein-Westfalen, 45131, Deutschland",51.426264,7.0076064,alfried krupp krankenhaus
Universitätsklinikum Essen,"Hufelandstr. 54, 45147 Essen, Nordrhein-Westfalen",Überregionale Stroke Unit,universitätsklinikum essen,False,"54, Hufelandstraße, Holsterhausen, Stadtbezirk III, Essen, Nordrhein-Westfalen, 45147, Deutschland",51.4365272,6.9918622,universitätsklinikum essen
"Kath. Kliniken Ruhrhalbinsel, St. Josef-Krankenhaus Kupferdreh","Heidbergweg 22-24, 45257 Essen, Nordrhein-Westfalen",Regionale Stroke Unit,kath kliniken ruhrhalbinsel st josef-krankenhaus kupferdreh,False,"St.Josef Krankenhaus, 22-24, Heidbergweg, Kupferdreh, Stadtbezirk VIII, Essen, Nordrhein-Westfalen, 45257, Deutschland",51.3916617,7.0857863,"kath. kliniken ruhrhalbinsel, st. josef-krankenhaus kupferdreh"
Philippusstift Essen,"Hülsmannstr. 17, 45355 Essen, Nordrhein-Westfalen",Regionale Stroke Unit,philippusstift essen,False,"17, Hülsmannstraße, Borbeck, Stadtbezirk IV, Essen, Nordrhein-Westfalen, 45355, Deutschland",51.4756738,6.9501726,philippusstift essen
St. Marien-Hospital Mülheim an der Ruhr,"Kaiserstr. 50, 45468 Mülheim a.d. Ruhr, Nordrhein-Westfalen",Regionale Stroke Unit,st marien-hospital mülheim an der ruhr,False,"St. Marien-Hospital, 50, Kaiserstraße, Innenstadt, Altstadt I, Rechtsruhr-Süd, Mülheim an der Ruhr, Nordrhein-Westfalen, 45468, Deutschland",51.4259815,6.8867412,st. marien-hospital mülheim an der ruhr
"Augusta-Kranken-Anstalt gGmbH, BSt Evangelisches Krankenhaus Hattingen","Bredenscheider Str. 54, 45525 Hattingen, Nordrhein-Westfalen",Regionale Stroke Unit,augusta-kranken-anstalt ggmbh bst evangelisches krankenhaus hattingen,False,"54, Bredenscheider Straße, Hattingen, Ennepe-Ruhr-Kreis, Nordrhein-Westfalen, 45525, Deutschland",51.3940172,7.1926896,"augusta-kranken-anstalt ggmbh, bst evangelisches krankenhaus hattingen"
"Klinikum Vest GmbH, Knappschaftskrankenhaus Recklinghausen","Dorstener Str. 151, 45657 Recklinghausen, Nordrhein-Westfalen",Überregionale Stroke Unit,klinikum vest gmbh knappschaftskrankenhaus recklinghausen,True,"Klinikum Vest Recklinghausen, 151, Dorstener Straße, Westviertel, Recklinghausen, Kreis Recklinghausen, Nordrhein-Westfalen, 45657, Deutschland",51.6199679,7.1760656,"klinikum vest gmbh, knappschaftskrankenhaus recklinghausen"
Elisabeth Krankenhaus Recklinghausen,"Röntgenstr. 10, 45661 Recklinghausen, Nordrhein-Westfalen",Regionale Stroke Unit,elisabeth krankenhaus recklinghausen,False,"Elisabeth-Krankenhaus Recklinhausen, 10, Röntgenstraße, Süd, Recklinghausen Süd, Recklinghausen, Kreis Recklinghausen, Nordrhein-Westfalen, 45661, Deutschland",51.5681828,7.2072093,elisabeth krankenhaus recklinghausen
Evangelische Kliniken Gelsenkirchen,"Munckelstr. 27, 45879 Gelsenkirchen, Nordrhein-Westfalen",Regionale Stroke Unit,evangelische kliniken gelsenkirchen,False,"Evangelische Kliniken, 27, Munckelstraße, Altstadt, Gelsenkirchen-Mitte, Gelsenkirchen, Nordrhein-Westfalen, 45879, Deutschland",51.5096391,7.0887626,evangelische kliniken gelsenkirchen
KKEL Standort St. Barbara-Hospital,"Barbarastr. 6, 45964 Gladbeck, Nordrhein-Westfalen",Regionale Stroke Unit,kkel standort st barbara-hospital,False,"6, Barbarastraße, Mitte I (West), Mitte, Gladbeck, Kreis Recklinghausen, Nordrhein-Westfalen, 45964, Deutschland",51.5739762,6.9879397,kkel standort st. barbara-hospital
AMEOS Klinikum St. Clemens,"Wilhelmstr. 34, 46145 Oberhausen, Nordrhein-Westfalen",Regionale Stroke Unit,ameos klinikum st clemens,False,"34, Wilhelmstraße, Alsfeld, Sterkrade, Oberhausen, Nordrhein-Westfalen, 46145, Deutschland",51.5175112,6.8448097,ameos klinikum st. clemens
Knappschaftskrankenhaus Bottrop,"Osterfelder Str. 157, 46242 Bottrop, Nordrhein-Westfalen",Überregionale Stroke Unit,knappschaftskrankenhaus bottrop,True,"157, Osterfelder Straße, Stadtmitte, Bottrop, Nordrhein-Westfalen, 46242, Deutschland",51.5147427,6.9071778,knappschaftskrankenhaus bottrop
St. Marien-Hospital Borken,"Am Boltenhof 7, 46325 Borken, Nordrhein-Westfalen",Regionale Stroke Unit,st marien-hospital borken,False,"7, Am Boltenhof, Borken, Kreis Borken, Nordrhein-Westfalen, 46325, Deutschland",51.841961,6.860559,st. marien-hospital borken
Evangelisches Krankenhaus Wesel,"Schermbecker Landstr. 88, 46485 Wesel, Nordrhein-Westfalen",Regionale Stroke Unit,evangelisches krankenhaus wesel,False,"Evangelisches Krankenhaus Wesel, 88, Schermbecker Landstraße, Wittenberg, Obrighoven-Lackhausen, Wesel, Kreis Wesel, Nordrhein-Westfalen, 46485, Deutschland",51.6596655,6.6545882,evangelisches krankenhaus wesel
SANA Kliniken Duisburg,"Zu den Rehwiesen 7-9, 47055 Duisburg, Nordrhein-Westfalen",Überregionale Stroke Unit,sana kliniken duisburg,True,"Zu den Rehwiesen, Wanheimerort, Duisburg-Mitte, Duisburg, Nordrhein-Westfalen, 47055, Deutschland",51.3979404,6.7828432,sana kliniken duisburg
St. Josef Krankenhaus GmbH Moers,"Asberger Str. 4, 47441 Moers, Nordrhein-Westfalen",Überregionale Stroke Unit,st josef krankenhaus gmbh moers,False,"4, Asberger Straße, Moers-Mitte, Moers, Kreis Wesel, Nordrhein-Westfalen, 47441, Deutschland",51.4454023,6.6410419,st. josef krankenhaus gmbh moers
"Alexianer Krefeld GmbH, Krankenhaus Maria-Hilf","Dießemer Bruch 81, 47805 Krefeld, Nordrhein-Westfalen",Regionale Stroke Unit,alexianer krefeld gmbh krankenhaus maria-hilf,False,"81, Dießemer Bruch, Dießem, Krefeld-Mitte, Krefeld-Süd, Krefeld, Tönisvorst, Nordrhein-Westfalen, 47805, Deutschland",51.3254917,6.5866841,"alexianer krefeld gmbh, krankenhaus maria-hilf"
HELIOS Klinikum Krefeld,"Lutherplatz 40, 47805 Krefeld, Nordrhein-Westfalen",Überregionale Stroke Unit,helios klinikum krefeld,True,"40, Lutherplatz, Dießem, Krefeld-Mitte, Krefeld-Süd, Krefeld, Tönisvorst, Nordrhein-Westfalen, 47805, Deutschland",51.3209451,6.5660868,helios klinikum krefeld
Hospital zum Heiligen Geist GmbH & Co. KG,"Von-Broichhausen-Allee 1, 47906 Kempen, Nordrhein-Westfalen",Regionale Stroke Unit,hospital zum heiligen geist gmbh & co kg,False,"von Broichhausen Allee 1, Von-Broichhausen-Allee, Kempen, Tönisvorst, Kreis Viersen, Nordrhein-Westfalen, 47906, Deutschland",51.3637138,6.4112649,hospital zum heiligen geist gmbh & co. kg
UKM Universitätsklinikum Münster,"Fliednerstraße 24, 48149 Münster, Nordrhein-Westfalen",Überregionale Stroke Unit,ukm universitätsklinikum münster,True,"24, Fliednerstraße, Sentruper Höhe, Münster-West, Münster, Nordrhein-Westfalen, 48149, Deutschland",51.9638293,7.5931013,ukm universitätsklinikum münster
Herz-Jesu-Krankenhaus Hiltrup GmbH,"Westfalenstr. 109, 48165 Münster, Nordrhein-Westfalen",Überregionale Stroke Unit,herz-jesu-krankenhaus hiltrup gmbh,False,"109, Westfalenstraße, Hiltrup-West, Hiltrup, Münster-Hiltrup, Münster, Nordrhein-Westfalen, 48165, Deutschland",51.908847,7.6344033,herz-jesu-krankenhaus hiltrup gmbh
Christophorus-Klinik Dülmen,"Vollenstr. 10, 48249 Dülmen, Nordrhein-Westfalen",Regionale Stroke Unit,christophorus-klinik dülmen,False,"Christophorus Kliniken, 10, Vollenstraße, Mitte, Dülmen, Kreis Coesfeld, Nordrhein-Westfalen, 48249, Deutschland",51.8273601,7.280207,christophorus-klinik dülmen
EUREGIO-KLINIK,"Albert-Schweitzer-Str. 10, 48527 Nordhorn, Niedersachsen",Regionale Stroke Unit,euregio-klinik,False,"EUREGIO-KLINIK, 10, Albert-Schweitzer-Straße, Altendorf, Nordhorn, Landkreis Grafschaft Bentheim, Niedersachsen, 48527, Deutschland",52.4430328,7.0659723,euregio-klinik
Niels-Stensen-Kliniken - Marienhospital Osnabrück,"Am Natruper Holz 69, 49076 Osnabrück, Niedersachsen",Überregionale Stroke Unit,niels-stensen-kliniken - marienhospital osnabrück,False,"Niels-Stensen-Klinken - Standort Natruper Holz, 69, Am Natruper Holz, Westerberg, Osnabrück, Niedersachsen, 49076, Deutschland",52.2892544,8.0109038,niels-stensen-kliniken - marienhospital osnabrück
Klinikum Osnabrück GmbH,"Am Finkenhügel 1, 49076 Osnabrück, Niedersachsen",Überregionale Stroke Unit,klinikum osnabrück gmbh,False,"Klinikum Osnabrück, 1, Am Finkenhügel, Westerberg, Osnabrück, Niedersachsen, 49076, Deutschland",52.2782493,8.002721,klinikum osnabrück gmbh
Krankenhaus St. Elisabeth gGmbH,"Lindenstr. 3-7, 49401 Damme, Niedersachsen",Regionale Stroke Unit,krankenhaus st elisabeth ggmbh,False,"3-7, Lindenstraße, Clemens-August-Dorf, Damme, Landkreis Vechta, Niedersachsen, 49401, Deutschland",52.5209349,8.1942571,krankenhaus st. elisabeth ggmbh
Klinikum Ibbenbüren,"Große Str. 41, 49477 Ibbenbüren, Nordrhein-Westfalen",Überregionale Stroke Unit,klinikum ibbenbüren,False,"Klinikum Ibbenbüren ""St.-Elisabeth-Hospital"", 41, Große Straße, Ibbenbüren, Kreis Steinfurt, Nordrhein-Westfalen, 49477, Deutschland",52.278612,7.71381,klinikum ibbenbüren
Christliches Krankenhaus Quakenbrück gGmbH,"Danziger Str. 2, 49610 Quakenbrück, Niedersachsen",Regionale Stroke Unit,christliches krankenhaus quakenbrück ggmbh,True,"2, Danziger Straße, Neustadt, Quakenbrück, Artland, Landkreis Osnabrück, Niedersachsen, 49610, Deutschland",52.6678491,7.9384516,christliches krankenhaus quakenbrück ggmbh
Krankenhaus Ludmillenstift,"Ludmillenstr. 4-6, 49716 Meppen, Niedersachsen",Überregionale Stroke Unit,krankenhaus ludmillenstift,False,"Krankenhaus Ludmillenstift, 4-6, Ludmillenstraße, Altstadt, Meppen, Landkreis Emsland, Niedersachsen, 49716, Deutschland",52.6887165,7.2929998,krankenhaus ludmillenstift
St. Katharinen-Hospital GmbH,"Krankenhausstraße 2, 50226 Frechen, Nordrhein-Westfalen",Regionale Stroke Unit,st katharinen-hospital gmbh,False,"2, Krankenhausstraße, Hücheln, Frechen, Rhein-Erft-Kreis, Nordrhein-Westfalen, 50226, Deutschland",50.9233203,6.8110238,st. katharinen-hospital gmbh
Cellitinnen-Krankenhaus Heilig Geist,"Graseggerstr. 97, 50737 Köln, Nordrhein-Westfalen",Regionale Stroke Unit,cellitinnen-krankenhaus heilig geist,False,"97, Graseggerstraße, Gartenstadt-Nord, Longerich, Nippes, Köln, Nordrhein-Westfalen, 50737, Deutschland",50.9923776,6.9257723,cellitinnen-krankenhaus heilig geist
Uniklinik Köln,"Kerpener Str. 62, 50937 Köln, Nordrhein-Westfalen",Überregionale Stroke Unit,uniklinik köln,True,"Zentralklinikum, 62, Kerpener Straße, Lindenthal, Köln, Nordrhein-Westfalen, 50937, Deutschland",50.9236351,6.9170838,uniklinik köln
Klinikum Leverkusen,"Am Gesundheitspark 5, 51375 Leverkusen, Nordrhein-Westfalen",Regionale Stroke Unit,klinikum leverkusen,False,"5, Am Gesundheitspark, Schlebusch, Stadtbezirk III, Leverkusen, Nordrhein-Westfalen, 51375, Deutschland",51.0310691,7.0348763,klinikum leverkusen
Marien-Krankenhaus,"Dr.-Robert-Koch-Str. 18, 51465 Bergisch Gladbach, Nordrhein-Westfalen",Regionale Stroke Unit,marien-krankenhaus,False,"18, Dr.-Robert-Koch-Straße, Hebborn, Bergisch Gladbach, Rheinisch-Bergischer Kreis, Nordrhein-Westfalen, 51465, Deutschland",50.9937714,7.1309545,marien-krankenhaus
Uniklinik RWTH Aachen,"Pauwelsstr. 30, 52074 Aachen, Nordrhein-Westfalen",Überregionale Comprehensive Stroke Unit,uniklinik rwth aachen,True,"Uniklinik RWTH Aachen, 30, Pauwelsstraße, Gut Kullen, Laurensberg, Aachen, Städteregion Aachen, Nordrhein-Westfalen, 52074, Deutschland",50.7768959,6.0445939,uniklinik rwth aachen
Rhein-Maas Klinikum GmbH,"Mauerfeldchen 25, 52146 Würselen, Nordrhein-Westfalen",Überregionale Stroke Unit,rhein-maas klinikum gmbh,False,"25, Mauerfeldchen, Kapellenfeldchen, Dobach, Würselen, Städteregion Aachen, Nordrhein-Westfalen, 52146, Deutschland",50.8151704,6.1429153,rhein-maas klinikum gmbh
St. Augustinus-Krankenhaus,"Renkerstr. 35, 52355 Düren, Nordrhein-Westfalen",Regionale Stroke Unit,st augustinus-krankenhaus,False,"35, Renkerstraße, Niederau, Düren, Kreis Düren, Nordrhein-Westfalen, 52355, Deutschland",50.7709305,6.4884678,st. augustinus-krankenhaus
LVR-Klinik Bonn,"Kaiser-Karl-Ring 23, 53111 Bonn, Nordrhein-Westfalen",Regionale Stroke Unit,lvr-klinik bonn,False,"23, Kaiser-Karl-Ring, Bonn-Castell, Stadtbezirk Bonn, Bonn, Nordrhein-Westfalen, 53111, Deutschland",50.7447959,7.0917228,lvr-klinik bonn
Universitätsklinikum Bonn,"Haager Weg 9, 53127 Bonn, Nordrhein-Westfalen",Überregionale Stroke Unit,universitätsklinikum bonn,False,"9, Haager Weg, Venusberg, Stadtbezirk Bonn, Bonn, Nordrhein-Westfalen, 53127, Deutschland",50.7044317,7.0978288,universitätsklinikum bonn
Marienhaus Klinikum im Kreis Ahrweiler,"Hardtstraße 23, 53474 Bad Neuenahr-Ahrweiler, Rheinland-Pfalz",Telemedizinisch vernetzte Stroke Unit,marienhaus klinikum im kreis ahrweiler,False,"23, Hardtstraße, Neuenahr, Bad Neuenahr-Ahrweiler, Landkreis Ahrweiler, Rheinland-Pfalz, 53474, Deutschland",50.5403637,7.1292309,marienhaus klinikum im kreis ahrweiler
DRK Kamillus Klinik,"Hospitalstr. 6, 53567 Asbach, Rheinland-Pfalz",Regionale Stroke Unit,drk kamillus klinik,False,"DRK Kamillus Klinik Asbach, 6, Hospitalstraße, Parscheid, Drinhausen, Asbach, Landkreis Neuwied, Rheinland-Pfalz, 53567, Deutschland",50.6678678,7.4242846,drk kamillus klinik
"GFO Kliniken Troisdorf, St. Johannes Krankenhaus","Wilhelm-Busch-Str. 9, 53844 Troisdorf, Nordrhein-Westfalen",Regionale Stroke Unit,gfo kliniken troisdorf st johannes krankenhaus,False,"GFO Kliniken Troisdorf St. Johannes Krankenhaus, 9, Wilhelm-Busch-Straße, Sieglar, Troisdorf, Rhein-Sieg-Kreis, Nordrhein-Westfalen, 53844, Deutschland",50.7972446,7.1174131,"gfo kliniken troisdorf, st. johannes krankenhaus"
Marien-Hospital Euskirchen,"Gottfried-Disse-Str. 40, 53879 Euskirchen, Nordrhein-Westfalen",Regionale Stroke Unit,marien-hospital euskirchen,False,"40, Gottfried-Disse-Straße, Euskirchen, Kreis Euskirchen, Nordrhein-Westfalen, 53879, Deutschland",50.6423738,6.7912555,marien-hospital euskirchen
Krankenhaus der Barmherzigen Brüder Trier,"Peter-Friedhofen-Straße 2, 54292 Trier, Rheinland-Pfalz",Überregionale Stroke Unit,krankenhaus der barmherzigen brüder trier,False,"2, Peter-Friedhofen-Straße, Zurlauben, Maximin, Nord, Trier, Trierweiler, Rheinland-Pfalz, 54292, Deutschland",49.7628622,6.6370355,krankenhaus der barmherzigen brüder trier
"Verbundkrankenhaus Bernkastel/Wittlich, St. Elisabeth Krankenhaus","Koblenzer Str. 91, 54516 Wittlich, Rheinland-Pfalz",Regionale Stroke Unit,verbundkrankenhaus bernkastel/wittlich st elisabeth krankenhaus,False,"91, Koblenzer Straße, Wittlich, Landkreis Bernkastel-Wittlich, Rheinland-Pfalz, 54516, Deutschland",50.000609,6.8921032,"verbundkrankenhaus bernkastel/wittlich, st. elisabeth krankenhaus"
Universitätsmedizin der Johannes Gutenberg-Universität Mainz,"Langenbeckstr. 1, 55131 Mainz, Rheinland-Pfalz",Überregionale Stroke Unit,universitätsmedizin der johannes gutenberg-universität mainz,True,"102 Café & mehr, 1, Langenbeckstraße, Kupferbergterrassen, Oberstadt, Mainz, Rheinland-Pfalz, 55131, Deutschland",49.9917813,8.2603945,universitätsmedizin der johannes gutenberg-universität mainz
Krankenhaus St. Marienwörth,"Mühlenstr. 39, 55543 Bad Kreuznach, Rheinland-Pfalz",Telemedizinisch vernetzte Stroke Unit,krankenhaus st marienwörth,False,"39, Mühlenstraße, Bad Kreuznach, Landkreis Bad Kreuznach, Rheinland-Pfalz, 55543, Deutschland",49.8464188,7.8610687,krankenhaus st. marienwörth
SHG: Klinikum Idar-Oberstein GmbH,"Dr.-Ottmar-Kohler-Str. 2, 55743 Idar-Oberstein, Rheinland-Pfalz",Regionale Stroke Unit,shg: klinikum idar-oberstein gmbh,False,"2, Dr.-Ottmar-Kohler-Straße, Göttschied, Idar-Oberstein, Landkreis Birkenfeld, Rheinland-Pfalz, 55743, Deutschland",49.7161834,7.3212833,shg: klinikum idar-oberstein gmbh
"Katholisches Klinikum Koblenz·Montabaur, Brüderhaus Koblenz","Kardinal-Krementz-Str. 1-5, 56073 Koblenz, Rheinland-Pfalz",Überregionale Stroke Unit,katholisches klinikum koblenz·montabaur brüderhaus koblenz,False,"Brüderhaus Koblenz, 1-5, Kardinal-Krementz-Straße, Goldgrube, Koblenz, Rheinland-Pfalz, 56073, Deutschland",50.3536031,7.5869392,"katholisches klinikum koblenz·montabaur, brüderhaus koblenz"
Evangelisches Krankenhaus Dierdorf/Selters gGmbH,"Waldstr. 5, 56242 Selters, Rheinland-Pfalz",Regionale Stroke Unit,evangelisches krankenhaus dierdorf/selters ggmbh,False,"5, Waldstraße, Vielbach, Selters (Westerwald), Westerwaldkreis, Rheinland-Pfalz, 56244, Deutschland",50.5076279,7.7707207,evangelisches krankenhaus dierdorf/selters ggmbh
Klinikum Siegen GmbH,"Weidenauer Str. 83, 57076 Siegen, Nordrhein-Westfalen",Überregionale Stroke Unit,klinikum siegen gmbh,True,"83, Weidenauer Straße, Weidenau, Siegen, Kreis Siegen-Wittgenstein, Nordrhein-Westfalen, 57076, Deutschland",50.903519,8.0208927,klinikum siegen gmbh
Gemeinschaftskrankenhaus Herdecke gGmbH,"Gerhard-Kienle-Weg 4, 58313 Herdecke, Nordrhein-Westfalen",Überregionale Stroke Unit,gemeinschaftskrankenhaus herdecke ggmbh,False,"4, Gerhard-Kienle-Weg, Westende, Ende, Herdecke, Ennepe-Ruhr-Kreis, Nordrhein-Westfalen, 58313, Deutschland",51.4110418,7.4012214,gemeinschaftskrankenhaus herdecke ggmbh
Märkische Kliniken GmbH - Klinikum Lüdenscheid,"Paulmannshöher Str. 14, 58515 Lüdenscheid, Nordrhein-Westfalen",Regionale Stroke Unit,märkische kliniken gmbh - klinikum lüdenscheid,False,"Klinikum Lüdenscheid, 14, Paulmannshöher Straße, Hellersen, Lüdenscheid, Märkischer Kreis, Nordrhein-Westfalen, 58515, Deutschland",51.2077232,7.6622444,märkische kliniken gmbh - klinikum lüdenscheid
St. Marien-Hospital Hamm gGmbH,"Knappenstr. 19, 59071 Hamm, Nordrhein-Westfalen",Regionale Stroke Unit110,st marien-hospital hamm ggmbh,False,"Johanniter-Kliniken Hamm, 19, Knappenstraße, Bad Hamm, Mark, Uentrop, Hamm, Nordrhein-Westfalen, 59071, Deutschland",51.6882893,7.849598,st. marien-hospital hamm ggmbh
St. Franziskus-Hospital Ahlen,"Robert-Koch-Str. 55, 59227 Ahlen, Nordrhein-Westfalen",Regionale Stroke Unit,st franziskus-hospital ahlen,False,"St. Franziskus Hospital, 55, Robert-Koch-Straße, Ahlen, Kreis Warendorf, Nordrhein-Westfalen, 59227, Deutschland",51.767329,7.884784,st. franziskus-hospital ahlen
Christliches Klinikum Unna WEST,"Holbeinstr. 10, 59423 Unna, Nordrhein-Westfalen",Regionale Stroke Unit,christliches klinikum unna west,False,"Christliches Klinikum Unna gGmbH / Standort West (CKU West), 10, Holbeinstraße, Unna, Kreis Unna, Nordrhein-Westfalen, 59423, Deutschland",51.5333518,7.6764667,christliches klinikum unna west
Klinikum Stadt Soest gGmbH,"Senator-Schwartz-Ring 8, 59494 Soest, Nordrhein-Westfalen",Regionale Stroke Unit,klinikum stadt soest ggmbh,False,"Klinikum Stadt Soest, 8, Senator-Schwartz-Ring, Ardey, Soest, Kreis Soest, Nordrhein-Westfalen, 59494, Deutschland",51.5650729,8.0778409,klinikum stadt soest ggmbh
Evangelisches Krankenhaus Lippstadt gGmbH,"Wiedenbrücker Str. 33, 59555 Lippstadt, Nordrhein-Westfalen",Regionale Stroke Unit,evangelisches krankenhaus lippstadt ggmbh,False,"Evangelisches Krankenhaus, 33, Wiedenbrücker Straße, Lippstadt, Kreis Soest, Nordrhein-Westfalen, 59555, Deutschland",51.6848042,8.3422539,evangelisches krankenhaus lippstadt ggmbh
Klinikum Hochsauerland StO Karolinen-Hospital,"Stolte Ley 5, 59759 Arnsberg, Nordrhein-Westfalen",Regionale Stroke Unit,klinikum hochsauerland sto karolinen-hospital,False,"5, Stolte Ley, Hüsten, Arnsberg, Hochsauerlandkreis, Nordrhein-Westfalen, 59759, Deutschland",51.4263126,7.9995761,klinikum hochsauerland sto karolinen-hospital
Krankenhaus Nordwest,"Steinbacher Hohl 2-26, 60488 Frankfurt am Main, Hessen",Überregionale Stroke Unit,krankenhaus nordwest,True,"Krankenhaus Nordwest, 2-26, Steinbacher Hohl, Praunheim, Mitte-West, Frankfurt am Main, Hessen, 60488, Deutschland",50.1509039,8.6184578,krankenhaus nordwest
Universitätsklinikum Frankfurt,"Schleusenweg 2-16, 60528 Frankfurt am Main, Hessen",Überregionale Comprehensive Stroke Unit,universitätsklinikum frankfurt,True,"Schleusenweg, Niederrad, Süd, Frankfurt am Main, Hessen, 60528, Deutschland",50.0891012,8.6502617,universitätsklinikum frankfurt
Hochtaunus-Klinik Bad Homburg,"Zeppelinstr. 12, 61352 Bad Homburg, Hessen",Regionale Stroke Unit,hochtaunus-klinik bad homburg,False,"Zeppelinstraße, Innenstadt, Bad Homburg vor der Höhe, Hochtaunuskreis, Hessen, 61352, Deutschland",50.2158914,8.6125547,hochtaunus-klinik bad homburg
Sana Klinikum Offenbach GmbH,"Starkenburgring 73, 63069 Offenbach, Hessen",Überregionale Stroke Unit,sana klinikum offenbach gmbh,False,"73, Starkenburgring, Senefelderquartier, Offenbach am Main, Hessen, 63069, Deutschland",50.0964535,8.7560237,sana klinikum offenbach gmbh
Asklepios Klinik Langen,"Frankfurter Straße 66, 63225 Langen (Hessen), Hessen",Regionale Stroke Unit,asklepios klinik langen,False,"66, Frankfurter Straße, Altstadt, Langen, Landkreis Offenbach, Hessen, 63225, Deutschland",49.9947887,8.6800347,asklepios klinik langen
Klinikum Hanau GmbH,"Leimenstr. 33, 63450 Hanau, Hessen",Überregionale Stroke Unit,klinikum hanau gmbh,True,"33, Leimenstraße, Innenstadt, Hanau, Main-Kinzig-Kreis, Hessen, 63450, Deutschland",50.134129,8.9213464,klinikum hanau gmbh
Main-Kinzig-Kliniken Gelnhausen,"Herzbachweg 25, 63571 Gelnhausen, Hessen",Regionale Stroke Unit,main-kinzig-kliniken gelnhausen,False,"25, Herzbachweg, Gelnhausen-Mitte, Gelnhausen, Main-Kinzig-Kreis, Hessen, 63571, Deutschland",50.2058794,9.1805847,main-kinzig-kliniken gelnhausen
Asklepios Neurologische Klinik Bad Salzhausen,"Am Hasensprung 6, 63667 Nidda, Hessen",Regionale Stroke Unit,asklepios neurologische klinik bad salzhausen,False,"6, Am Hasensprung, Bad Salzhausen, Nidda, Wetteraukreis, Hessen, 63667, Deutschland",50.419713,8.9881297,asklepios neurologische klinik bad salzhausen
Klinikum Aschaffenburg-Alzenau gGmbH,"Am Hasenkopf 1, 63739 Aschaffenburg, Bayern",Überregionale Stroke Unit,klinikum aschaffenburg-alzenau ggmbh,False,"Kinderklinik, 1, Am Hasenkopf, Stadtmitte, Aschaffenburg, Bayern, 63739, Deutschland",49.9765374,9.1860608,klinikum aschaffenburg-alzenau ggmbh
Helios Klinik Erlenbach,"Krankenhausstr. 45, 63906 Erlenbach, Bayern",Regionale Stroke Unit,helios klinik erlenbach,False,"Helios Klinik Erlenbach, 45, Krankenhausstraße, Erlenbach, Erlenbach am Main, Landkreis Miltenberg, Bayern, 63906, Deutschland",49.8109038,9.1658383,helios klinik erlenbach
Klinikum Darmstadt GmbH,"Bleichstraße 30, 64283 Darmstadt, Hessen",Überregionale Stroke Unit,klinikum darmstadt gmbh,True,"30, Bleichstraße, Mollerstadt, Darmstadt-Mitte, Darmstadt, Hessen, 64283, Deutschland",49.8731074,8.6447998,klinikum darmstadt gmbh
Kreiskrankenhaus Bergstraße,"Viernheimer Str. 2, 64646 Heppenheim, Hessen",Regionale Stroke Unit,kreiskrankenhaus bergstraße,False,"2, Viernheimer Straße, Heppenheim, Kreis Bergstraße, Hessen, 64646, Deutschland",49.6281904,8.625264,kreiskrankenhaus bergstraße
Gesundheitszentrum Odenwaldkreis GmbH,"Albert-Schweitzer-Str. 10-20, 64711 Erbach, Hessen",Telemedizinisch vernetzte Stroke Unit,gesundheitszentrum odenwaldkreis gmbh,False,"Kreiskrankenhaus Erbach, 10 - 20, Albert-Schweitzer-Straße, Erbach (Odenwald), Erbach, Odenwaldkreis, Hessen, 64711, Deutschland",49.6516204,9.000656,gesundheitszentrum odenwaldkreis gmbh
St. Josefs-Hospital Wiesbaden GmbH,"Beethovenstr. 20, 65189 Wiesbaden, Hessen",Regionale Stroke Unit,st josefs-hospital wiesbaden gmbh,False,"Sankt-Josefs-Hospital, 20, Beethovenstraße, Südost, Wiesbaden, Hessen, 65189, Deutschland",50.0764489,8.2544924,st. josefs-hospital wiesbaden gmbh
Helios Dr. Horst Schmidt Kliniken Wiesbaden,"Ludwig-Erhard-Str. 90, 65199 Wiesbaden, Hessen",Überregionale Stroke Unit,helios dr horst schmidt kliniken wiesbaden,True,"Ludwig-Erhard-Str., 65187 Wiesbaden, 90, Ludwig-Erhard-Straße, Schelmengraben, Dotzheim, Wiesbaden, Hessen, 65199, Deutschland",50.0659953,8.1915971,helios dr. horst schmidt kliniken wiesbaden
GPR Klinikum Rüsselsheim,"August-Bebel-Str. 53, 65428 Rüsselsheim, Hessen",Regionale Stroke Unit,gpr klinikum rüsselsheim,False,"53, August-Bebel-Straße, Rüsselsheim am Main, Kreis Groß-Gerau, Hessen, 65428, Deutschland",49.9831172,8.4217477,gpr klinikum rüsselsheim
St. Vincenz-Krankenhaus Limburg,"Auf dem Schafsberg, 65549 Limburg, Hessen",Regionale Stroke Unit,st vincenz-krankenhaus limburg,True,"Auf dem Schafsberg, Limburg, Limburg an der Lahn, Landkreis Limburg-Weilburg, Hessen, 65549, Deutschland",50.387232,8.0509689,st. vincenz-krankenhaus limburg
Klinikum Frankfurt Höchst,"Gotenstr. 4, 65929 Frankfurt am Main, Hessen",Überregionale Stroke Unit,klinikum frankfurt höchst,False,"4, Gotenstraße, Höchst, West, Frankfurt am Main, Hessen, 65929, Deutschland",50.1061998,8.5457173,klinikum frankfurt höchst
cts CaritasKlinikum Saarbrücken St. Theresia,"Hubert-Müller-Straße 65, 66113 Saarbrücken, Saarland",Regionale Stroke Unit,cts caritasklinikum saarbrücken st theresia,False,"65, Hubert-Müller-Straße, Ottstraße, Burbach, West, Saarbrücken, Regionalverband Saarbrücken, Saarland, 66115, Deutschland",49.2482296,6.9530334,cts caritasklinikum saarbrücken st. theresia
Klinikum Saarbrücken gGmbH,"Winterberg 1, 66119 Saarbrücken, Saarland",Überregionale Comprehensive Stroke Unit,klinikum saarbrücken ggmbh,False,"Behandlungsbau, 1, Winterberg, St. Arnual, Bezirk Mitte, Saarbrücken, Regionalverband Saarbrücken, Saarland, 66119, Deutschland",49.2211468,6.9972072,klinikum saarbrücken ggmbh
Knappschaftsklinikum Saar - KH Sulzbach,"An der Klinik 10, 66280 Sulzbach, Saarland",Regionale Stroke Unit,knappschaftsklinikum saar - kh sulzbach,False,"10, An der Klinik, Hühnerfeld, Sulzbach/Saar, Regionalverband Saarbrücken, Saarland, 66280, Deutschland",49.2977342,7.054714,knappschaftsklinikum saar - kh sulzbach
Knappschaftsklinikum Saar - KH Püttlingen,"In der Humes 35, 66346 Püttlingen, Saarland",Regionale Stroke Unit,knappschaftsklinikum saar - kh püttlingen,False,"35, In der Humes, Berg, Püttlingen, Regionalverband Saarbrücken, Saarland, 66346, Deutschland",49.2767351,6.8683942,knappschaftsklinikum saar - kh püttlingen
Universitätsklinikum des Saarlandes,"Kirrbergerstr. 100, 66421 Homburg, Saarland",Überregionale Stroke Unit,universitätsklinikum des saarlandes,True,"Universitätsklinikum des Saarlandes, 100, Kirrberger Straße, Homburg, Saarpfalz-Kreis, Saarland, 66424, Deutschland",49.306219,7.3464925,universitätsklinikum des saarlandes
Diakonie Klinikum Neunkirchen gGmbH,"Brunnenstr. 20, 66538 Neunkirchen, Saarland",Regionale Stroke Unit,diakonie klinikum neunkirchen ggmbh,False,"Diakonie-Klinikum Neunkirchen, 20, Brunnenstraße, Neunkirchen, Landkreis Neunkirchen, Saarland, 66538, Deutschland",49.3409594,7.1830206,diakonie klinikum neunkirchen ggmbh
Marienhaus Klinikum St. Wendel-Ottweiler,"Am Hirschberg 1a, 66606 St. Wendel, Saarland",Regionale Stroke Unit,marienhaus klinikum st wendel-ottweiler,False,"1a, Am Hirschberg, Oberlinxweiler, Sankt Wendel, Landkreis St. Wendel, Saarland, 66606, Deutschland",49.4539793,7.1784916,marienhaus klinikum st. wendel-ottweiler
SHG: Klinikum Merzig gGmbH,"Trierer Str. 148, 66663 Merzig, Saarland",Regionale Stroke Unit,shg: klinikum merzig ggmbh,False,"148i, Trierer Straße, Merzig, Landkreis Merzig-Wadern, Saarland, 66663, Deutschland",49.4590255,6.6299114,shg: klinikum merzig ggmbh
Krankenhaus Saarlouis vom DRK,"Vaubanstr. 9, 66740 Saarlouis, Saarland",Regionale Stroke Unit,krankenhaus saarlouis vom drk,False,"9, Vaubanstraße, Saarlouis, Landkreis Saarlouis, Saarland, 66740, Deutschland",49.3143293,6.7463982,krankenhaus saarlouis vom drk
Marienhaus Klinikum St. Elisabeth Saarlouis,"Kapuzinerstr. 4, 66740 Saarlouis, Saarland",Regionale Stroke Unit,marienhaus klinikum st elisabeth saarlouis,False,"4, Kapuzinerstraße, Saarlouis, Landkreis Saarlouis, Saarland, 66740, Deutschland",49.3152364,6.7564872,marienhaus klinikum st. elisabeth saarlouis
Klinikum der Stadt Ludwigshafen am Rhein gGmbH,"Bremserstr. 100, 67063 Ludwigshafen, Rheinland-Pfalz",Überregionale Stroke Unit,klinikum der stadt ludwigshafen am rhein ggmbh,True,"100, Bremserstraße, Nord-Hemshof, Ludwigshafen-Nördliche Innenstadt, Ludwigshafen am Rhein, Rheinland-Pfalz, 67063, Deutschland",49.4901362,8.4225014,klinikum der stadt ludwigshafen am rhein ggmbh
Diakonissen-Stiftungs-Krankenhaus Speyer,"Paul-Egell-Str. 33, 67346 Speyer, Rheinland-Pfalz",Telemedizinisch vernetzte Stroke Unit,diakonissen-stiftungs-krankenhaus speyer,False,"Diakonissen-Stiftungs-Krankenhaus Speyer (Haus Hilgardstraße), 33, Paul-Egell-Straße, Speyer, Rheinland-Pfalz, 67346, Deutschland",49.3110892,8.4346112,diakonissen-stiftungs-krankenhaus speyer
Klinikum Worms gGmbH,"Am Krankenhaus 51, 67550 Worms, Rheinland-Pfalz",Regionale Stroke Unit,klinikum worms ggmbh,False,"Am Krankenhaus, Herrnsheim, Westliche Vororte, Worms, Rheinland-Pfalz, 67550, Deutschland",49.651429,8.3239849,klinikum worms ggmbh
Westpfalz-Klinikum GmbH,"Hellmut-Hartert-Str. 1, 67655 Kaiserslautern, Rheinland-Pfalz",Überregionale Stroke Unit,westpfalz-klinikum gmbh,False,"Westpfalz-Klinikum, 1, Hellmut-Hartert-Straße, Galgenschanze, Kaiserberg, Kaiserslautern, Rheinland-Pfalz, 67655, Deutschland",49.4414169,7.7560839,westpfalz-klinikum gmbh
Diako Mannheim gGmbH,"Speyerer Str. 91-93, 68163 Mannheim, Baden-Württemberg",Regionale Stroke Unit,diako mannheim ggmbh,False,"Diakoniekrankenhaus Mannheim, 91-93, Speyerer Straße, Lindenhof, Mannheim, Baden-Württemberg, 68163, Deutschland",49.463844,8.4709491,diako mannheim ggmbh
Universitätsklinikum Mannheim,"Theodor-Kutzer-Ufer 1-3, 68167 Mannheim, Baden-Württemberg",Überregionale Stroke Unit,universitätsklinikum mannheim,True,"Universitätsmedizin Mannheim, 1-3, Theodor-Kutzer-Ufer, Wohlgelegen, Neckarstadt-Ost, Neckarstadt-Ost/Wohlgelegen, Mannheim, Baden-Württemberg, 68167, Deutschland",49.4923524,8.4867398,universitätsklinikum mannheim
Universitätsklinikum Heidelberg,"Im Neuenheimer Feld 400, 69120 Heidelberg, Baden-Württemberg",Überregionale Stroke Unit,universitätsklinikum heidelberg,False,"Kopfklinik, 400, Im Neuenheimer Feld, Neuenheimer Feld, Neuenheim, Heidelberg, Baden-Württemberg, 69120, Deutschland",49.4178232,8.6665692,universitätsklinikum heidelberg
Klinikum Stuttgart - Katharinenhospital,"Kriegsbergstr. 60, 70174 Stuttgart, Baden-Württemberg",Überregionale Stroke Unit,klinikum stuttgart - katharinenhospital,True,"Katharinenhospital, 60, Kriegsbergstraße, Universität, Stuttgart-Mitte, Stuttgart, Baden-Württemberg, 70174, Deutschland",48.7837421,9.1733136,klinikum stuttgart - katharinenhospital
Marienhospital Stuttgart,"Böheimstr. 37, 70199 Stuttgart, Baden-Württemberg",Regionale Stroke Unit,marienhospital stuttgart,True,"Sankt Maria, 37, Böheimstraße, Stuttgart-Süd, Heslach, Stuttgart-Süd, Stuttgart, Baden-Württemberg, 70199, Deutschland",48.7609892,9.1633814,marienhospital stuttgart
Robert-Bosch-Krankenhaus GmbH,"Roter Stich 149, 70376 Stuttgart, Baden-Württemberg",Regionale Stroke Unit,robert-bosch-krankenhaus gmbh,False,"149, Roter Stich, Burgholzhof, Bad Cannstatt, Stuttgart, Baden-Württemberg, 70376, Deutschland",48.8162917,9.1882355,robert-bosch-krankenhaus gmbh
Klinikum Sindelfingen-Böblingen,"Arthur-Gruber-Str. 70, 71065 Sindelfingen, Baden-Württemberg",Regionale Stroke Unit,klinikum sindelfingen-böblingen,False,"Kliniken Sindelfingen, 70, Arthur-Gruber-Straße, Sindelfingen (Stadt), Sindelfingen, Landkreis Böblingen, Baden-Württemberg, 71065, Deutschland",48.7152057,9.0245021,klinikum sindelfingen-böblingen
Rems-Murr-Klinikum Winnenden,"Holunderweg 2, 71364 Winnenden, Baden-Württemberg",Regionale Stroke Unit,rems-murr-klinikum winnenden,False,"2, Holunderweg, Wohnpark Arkadien, Winnenden, Gemeindeverwaltungsverband Winnenden, Rems-Murr-Kreis, Baden-Württemberg, 71364, Deutschland",48.8713043,9.3911886,rems-murr-klinikum winnenden
Klinikum Ludwigsburg,"Erlachhofstr. 17, 71640 Ludwigsburg, Baden-Württemberg",Überregionale Stroke Unit,klinikum ludwigsburg,True,"17, Erlachhofstraße, Ludwigsburg - Ost, Ludwigsburg-Ost, Ludwigsburg, Landkreis Ludwigsburg, Baden-Württemberg, 71640, Deutschland",48.8998625,9.2045032,klinikum ludwigsburg
Universitätsklinikum Tübingen,"Frondsbergstraße 45, 72076 Tübingen, Baden-Württemberg",Überregionale Comprehensive Stroke Unit,universitätsklinikum tübingen,True,"45, Frondsbergstraße, Universität, Tübingen, Landkreis Tübingen, Baden-Württemberg, 72070, Deutschland",48.5279317,9.0464705,universitätsklinikum tübingen
SRH Klinikum Sigmaringen,"Hohenzollernstr. 40, 72488 Sigmaringen, Baden-Württemberg",Regionale Stroke Unit,srh klinikum sigmaringen,False,"SRH Krankenhaus Sigmaringen, 40, Hohenzollernstraße, Sigmaringen, Gemeindeverwaltungsverband Sigmaringen, Landkreis Sigmaringen, Baden-Württemberg, 72488, Deutschland",48.0962143,9.2261249,srh klinikum sigmaringen
"Kreiskliniken Reutlingen GmbH, Klinik am Steinenberg","Steinenbergstr. 31, 72764 Reutlingen, Baden-Württemberg",Regionale Stroke Unit,kreiskliniken reutlingen gmbh klinik am steinenberg,False,"Klinikum am Steinenberg, 31, Steinenbergstraße, Reutlingen (Kernstadt), Reutlingen, Landkreis Reutlingen, Baden-Württemberg, 72764, Deutschland",48.483878,9.218334,"kreiskliniken reutlingen gmbh, klinik am steinenberg"
Klinikum Christophsbad,"Faurndauer Str. 6-28, 73035 Göppingen, Baden-Württemberg",Regionale Stroke Unit,klinikum christophsbad,True,"Christophsbad, 6-28, Faurndauer Straße, Südstadt, Göppingen (Kernstadt), Göppingen, Vereinbarte Verwaltungsgemeinschaft der Stadt Göppingen, Landkreis Göppingen, Baden-Württemberg, 73035, Deutschland",48.7007419,9.6444354,klinikum christophsbad
medius Klinik Kirchheim,"Eugenstr. 3, 73230 Kirchheim unter Teck, Baden-Württemberg",Regionale Stroke Unit,medius klinik kirchheim,False,"3, Eugenstraße, Kirchheim unter Teck, Vereinbarte Verwaltungsgemeinschaft der Stadt Kirchheim unter Teck, Landkreis Esslingen, Baden-Württemberg, 73230, Deutschland",48.652175,9.4422059,medius klinik kirchheim
Ostalb-Klinikum Aalen,"Steinbeisstraße 33, 73430 Aalen, Baden-Württemberg",Regionale Stroke Unit,ostalb-klinikum aalen,False,"33, Steinbeisstraße, Weidenfeld, Wasseralfingen, Affalterried, Aalen, Verwaltungsgemeinschaft Aalen, Ostalbkreis, Baden-Württemberg, 73430, Deutschland",48.8508088,10.0875094,ostalb-klinikum aalen
Klinikum Esslingen,"Hirschlandstr. 97, 73730 Esslingen, Baden-Württemberg",Regionale Stroke Unit,klinikum esslingen,False,"97, Hirschlandstraße, Oberesslingen, Esslingen am Neckar, Landkreis Esslingen, Baden-Württemberg, 73730, Deutschland",48.7388874,9.3259829,klinikum esslingen
SLK-Kliniken Heilbronn GmbH,"Am Gesundbrunnen 20-26, 74078 Heilbronn, Baden-Württemberg",Überregionale Stroke Unit,slk-kliniken heilbronn gmbh,False,"20-26, Am Gesundbrunnen, Neckargartach, Heilbronn, Baden-Württemberg, 74078, Deutschland",49.1542812,9.1898226,slk-kliniken heilbronn gmbh
Diakonie-Klinikum Schwäbisch Hall gGmbH,"Alte Steige 1, 74523 Schwäbisch Hall, Baden-Württemberg",Regionale Stroke Unit,diakonie-klinikum schwäbisch hall ggmbh,False,"1, Alte Steige, Gelbingen, Schwäbisch Hall, Verwaltungsgemeinschaft Schwäbisch Hall, Landkreis Schwäbisch Hall, Baden-Württemberg, 74523, Deutschland",49.1311946,9.7453876,diakonie-klinikum schwäbisch hall ggmbh
Helios Klinikum Pforzheim,"Kanzlerstr. 2-6, 75175 Pforzheim, Baden-Württemberg",Regionale Stroke Unit,helios klinikum pforzheim,False,"2-6, Kanzlerstraße, Oststadt, Pforzheim, Baden-Württemberg, 75175, Deutschland",48.8889734,8.7123224,helios klinikum pforzheim
Städtisches Klinikum Karlsruhe,"Moltkestr. 90, 76133 Karlsruhe, Baden-Württemberg",Überregionale Comprehensive Stroke Unit,städtisches klinikum karlsruhe,True,"Haus A (Verwaltung), 90, Moltkestraße, Binsenschlauch, Nordweststadt, Karlsruhe, Baden-Württemberg, 76133, Deutschland",49.0156523,8.3745829,städtisches klinikum karlsruhe
SRH Klinikum Karlsbad-Langensteinbach GmbH,"Höhenstr. 2, 76307 Karlsbad-Langensteinbach, Baden-Württemberg",Überregionale Stroke Unit,srh klinikum karlsbad-langensteinbach gmbh,True,"2, Höhenstraße, Langensteinbach, Karlsbad, Landkreis Karlsruhe, Baden-Württemberg, 76307, Deutschland",48.9060921,8.5038105,srh klinikum karlsbad-langensteinbach gmbh
Klinikum Mittelbaden Rastatt,"Engelstr. 39, 76437 Rastatt, Baden-Württemberg",Regionale Stroke Unit,klinikum mittelbaden rastatt,False,"722200933752, Engelstr. 39, 39, Engelstraße, Georgenvorstadt, Rastatt, Vereinbarte Verwaltungsgemeinschaft Rastatt, Landkreis Rastatt, Baden-Württemberg, 76437, Deutschland",48.8614309,8.2053856,klinikum mittelbaden rastatt
Fürst-Stirum-Klinik Bruchsal,"Gutleutstr. 1-14, 76646 Bruchsal, Baden-Württemberg",Telemedizinisch vernetzte Stroke Unit,fürst-stirum-klinik bruchsal,False,"Fürst-Stirum-Klinik, 1-14, Gutleutstraße, Bruchsal, Verwaltungsgemeinschaft Bruchsal, Landkreis Karlsruhe, Baden-Württemberg, 76646, Deutschland",49.1321188,8.6039746,fürst-stirum-klinik bruchsal
Asklepios Südpfalzklinik Kandel,"Luitpoldstr. 14, 76870 Kandel, Rheinland-Pfalz",Telemedizinisch vernetzte Stroke Unit,asklepios südpfalzklinik kandel,False,"14, Luitpoldstraße, Minderslachen, Kandel, Landkreis Germersheim, Rheinland-Pfalz, 76870, Deutschland",49.0861838,8.2008809,asklepios südpfalzklinik kandel
Ortenau Klinikum Offenburg-Kehl,"Am Rittweg 16, 77654 Offenburg, Baden-Württemberg",Regionale Stroke Unit,ortenau klinikum offenburg-kehl,False,"16, Am Rittweg, Rammersweier, Offenburg, Verwaltungsgemeinschaft Offenburg, Ortenaukreis, Baden-Württemberg, 77654, Deutschland",48.4752686,7.9562811,ortenau klinikum offenburg-kehl
Ortenau Klinikum Lahr-Ettenheim,"Klostenstr. 12, 77933 Lahr, Baden-Württemberg",Überregionale Stroke Unit,ortenau klinikum lahr-ettenheim,False,"12, Klostenstraße, Burgheim, Lahr/Schwarzwald, Verwaltungsgemeinschaft Lahr/Schwarzwald, Ortenaukreis, Baden-Württemberg, 77933, Deutschland",48.34535,7.8856607,ortenau klinikum lahr-ettenheim
Schwarzwald-Baar Klinikum Villingen-Schwenningen GmbH,"Vor dem Klosterwald 7, 78052 Villingen-Schwenningen, Baden-Württemberg",Überregionale Stroke Unit,schwarzwald-baar klinikum villingen-schwenningen gmbh,True,"7, Vor dem Klosterwald, Schilterhäusle, Villingen, Villingen-Schwenningen, Verwaltungsgemeinschaft Villingen-Schwenningen, Schwarzwald-Baar-Kreis, Baden-Württemberg, 78052, Deutschland",48.0674358,8.494114,schwarzwald-baar klinikum villingen-schwenningen gmbh
Hegau-Bodensee-Klinikum Singen,"Virchowstr. 5, 78224 Singen, Baden-Württemberg",Regionale Stroke Unit,hegau-bodensee-klinikum singen,False,"5, Virchowstraße, Singen (Hohentwiel), Verwaltungsgemeinschaft Singen (Hohentwiel), Landkreis Konstanz, Baden-Württemberg, 78224, Deutschland",47.7574448,8.8206546,hegau-bodensee-klinikum singen
Universitätsklinikum Freiburg,"Breisacher Str. 64, 79106 Freiburg, Baden-Württemberg",Überregionale Stroke Unit,universitätsklinikum freiburg,False,"Neurozentrum, 64, Breisacher Straße, Uni-Carré, Stühlinger-Eschholz, Stühlinger, Freiburg im Breisgau, Baden-Württemberg, 79106, Deutschland",48.006006,7.8350499,universitätsklinikum freiburg
Kreiskrankenhaus Lörrach,"Spitalstr. 25, 79539 Lörrach, Baden-Württemberg",Regionale Stroke Unit,kreiskrankenhaus lörrach,False,"25, Spitalstraße, Bulgarien-Viertel, Lörrach (Kernstadt), Untertüllingen, Lörrach, Verwaltungsgemeinschaft Lörrach, Landkreis Lörrach, Baden-Württemberg, 79539, Deutschland",47.6143504,7.6582598,kreiskrankenhaus lörrach
Helios Klinikum München West,"Steinerweg 5, 81241 München, Bayern",Überregionale Stroke Unit,helios klinikum münchen west,True,"5, Steinerweg, Pasing, Pasing-Obermenzing, München, Bayern, 81241, Deutschland",48.1444878,11.4542841,helios klinikum münchen west
LMU Klinikum Campus Großhadern,"Marchioninistr. 15, 81377 München, Bayern",Überregionale Stroke Unit,lmu klinikum campus großhadern,True,"Klinikum Großhadern, 15, Marchioninistraße, Großhadern, Hadern, München, Bayern, 81377, Deutschland",48.1107056,11.4693622,lmu klinikum campus großhadern
München Klinik Harlaching,"Sanatoriumsplatz 2, 81545 München, Bayern",Überregionale Stroke Unit,münchen klinik harlaching,True,"München Klinik Harlaching, 2, Sanatoriumsplatz, Harlaching, Untergiesing-Harlaching, München, Bayern, 81545, Deutschland",48.0856455,11.5572092,münchen klinik harlaching
Klinikum rechts der Isar der TMU,"Ismaninger Str. 22, 81675 München, Bayern",Überregionale Stroke Unit,klinikum rechts der isar der tmu,True,"Klinikum rechts der Isar, 22, Ismaninger Straße, Steinhausen, Au-Haidhausen, München, Bayern, 81675, Deutschland",48.1378387,11.6015956,klinikum rechts der isar der tmu
München Klinik Bogenhausen,"Englschalkinger Str. 77, 81925 München, Bayern",Überregionale Stroke Unit,münchen klinik bogenhausen,False,"München Klinik Bogenhausen, 77, Englschalkinger Straße, Priel, Herzogpark, Bogenhausen, München, Bayern, 81925, Deutschland",48.1551599,11.6247172,münchen klinik bogenhausen
Klinikum Fürstenfeldbruck,"Dachauer Str. 33, 82256 Fürstenfeldbruck, Bayern",Regionale Stroke Unit,klinikum fürstenfeldbruck,False,"Klinikum Fürstenfeldbruck, 33, Dachauer Straße, Fürstenfeld, Fürstenfeldbruck, Landkreis Fürstenfeldbruck, Bayern, 82256, Deutschland",48.1808812,11.2593161,klinikum fürstenfeldbruck
Krankenhaus GmbH Landkreis Weilheim-Schongau - Krankenhaus Weilheim,"Johann-Baur-Str. 4, 82362 Weilheim, Bayern",Telemedizinisch vernetzte Stroke Unit,krankenhaus gmbh landkreis weilheim-schongau - krankenhaus weilheim,False,"Johann-Baur-Straße, Weilheim in Oberbayern, Landkreis Weilheim-Schongau, Bayern, 82362, Deutschland",47.8375238,11.1461613,krankenhaus gmbh landkreis weilheim-schongau - krankenhaus weilheim
BG Unfallklinik Murnau,"Professor-Küntscher-Str. 4, 82418 Murnau am Staffelsee, Bayern",Regionale Stroke Unit,bg unfallklinik murnau,False,"4, Professor-Küntscher-Straße, Weindorf, Hechendorf, Murnau am Staffelsee, Landkreis Garmisch-Partenkirchen, Bayern, 82418, Deutschland",47.672016,11.2129992,bg unfallklinik murnau
RoMed Klinikum Rosenheim,"Pettenkoferstr. 10, 83022 Rosenheim, Bayern",Regionale Stroke Unit,romed klinikum rosenheim,False,"RoMed Klinikum Rosenheim, 10, Pettenkoferstraße, Schmucken, Kastenau, Rosenheim, Bayern, 83022, Deutschland",47.8601386,12.1323599,romed klinikum rosenheim
Schön Klinik Bad Aibling Harthausen,"Kolbermoorer Str. 72, 83043 Bad Aibling, Bayern",Regionale Comprehensive Stroke Unit,schön klinik bad aibling harthausen,False,"Schön Klinik Bad Aibling-Harthausen, 72, Kolbermoorer Straße, Ghersburg, Harthausen, Bad Aibling, Landkreis Rosenheim, Bayern, 83043, Deutschland",47.8568992,12.02925,schön klinik bad aibling harthausen
"Kliniken Südostbayern, Klinikum Traunstein","Cuno-Niggl-Str. 3, 83278 Traunstein, Bayern",Überregionale Stroke Unit,kliniken südostbayern klinikum traunstein,False,"3, Cuno-Niggl-Straße, Neu-Traunstein, Gemarkung Traunstein, Traunstorf, Traunstein, Landkreis Traunstein, Bayern, 83278, Deutschland",47.873791,12.6318425,"kliniken südostbayern, klinikum traunstein"
Kreisklinik Bad Reichenhall,"Riedelstr. 5, 83435 Bad Reichenhall, Bayern",Telemedizinisch vernetzte Stroke Unit,kreisklinik bad reichenhall,False,"5, Riedelstraße, Nonn, Bad Reichenhall, Landkreis Berchtesgadener Land, Bayern, 83435, Deutschland",47.7280751,12.8717201,kreisklinik bad reichenhall
kbo-Inn-Salzach-Klinikum Wasserburg,"Gabersee 1, 83512 Wasserburg am Inn, Bayern",Regionale Stroke Unit,kbo-inn-salzach-klinikum wasserburg,False,"Gabersee, Kroit, Reitmehring, Wasserburg am Inn, Landkreis Rosenheim, Bayern, 83512, Deutschland",48.0598022,12.202512,kbo-inn-salzach-klinikum wasserburg
Asklepios Stadtklinik Bad Tölz GmbH,"Schützenstr. 15, 83646 Bad Tölz, Bayern",Regionale Stroke Unit,asklepios stadtklinik bad tölz gmbh,False,"15, Schützenstraße, Bad Tölz, Landkreis Bad Tölz-Wolfratshausen, Bayern, 83646, Deutschland",47.7566566,11.5515049,asklepios stadtklinik bad tölz gmbh
Krankenhaus Agatharied,"Norbert-Kerkel-Platz, 83734 Hausham, Bayern",Regionale Stroke Unit,krankenhaus agatharied,False,"Norbert-Kerkel-Platz, Poschmühl, Agatharied, Hausham, Landkreis Miesbach, Bayern, 83734, Deutschland",47.768863,11.8271916,krankenhaus agatharied
Klinikum Landshut,"Robert-Koch-Str. 1, 84034 Landshut, Bayern",Regionale Stroke Unit,klinikum landshut,False,"Klinikum Landshut, 1, Robert-Koch-Straße, Landshut-West, West, Landshut, Bayern, 84034, Deutschland",48.5376922,12.1374237,klinikum landshut
DONAUISAR Klinikum Dingolfing,"Teisbacher Str. 1, 84130 Dingolfing, Bayern",Telemedizinisch vernetzte Stroke Unit,donauisar klinikum dingolfing,False,"Donauisar Klinikum Dingolfing, 1, Teisbacher Straße, Krautau, Oberdingolfing, Dingolfing, Landkreis Dingolfing-Landau, Bayern, 84130, Deutschland",48.6217338,12.4898451,donauisar klinikum dingolfing
LAKUMED Krankenhaus Vilsbiburg,"Krankenhausstr. 2, 84137 Vilsbiburg, Bayern",Telemedizinisch vernetzte Stroke Unit,lakumed krankenhaus vilsbiburg,False,"Kreiskrankenhaus, 2, Krankenhausstraße, Vilsbiburg, Landkreis Landshut, Bayern, 84137, Deutschland",48.4449248,12.360079,lakumed krankenhaus vilsbiburg
Rottal-Inn Kliniken Eggenfelden,"Simonsöder Allee 20, 84307 Eggenfelden, Bayern",Telemedizinisch vernetzte Stroke Unit,rottal-inn kliniken eggenfelden,False,"20, Simonsöder Allee, Bruck, Falterer, Eggenfelden, Landkreis Rottal-Inn, Bayern, 84307, Deutschland",48.4133097,12.7600363,rottal-inn kliniken eggenfelden
InnKlinikum Altötting,"Vinzenz-von-Paul-Str. 10, 84503 Altötting, Bayern",Regionale Stroke Unit,innklinikum altötting,False,"radio-log Altötting, 8-10, Vinzenz-von-Paul-Straße, Herrenmühle, Altötting, Landkreis Altötting, Bayern, 84503, Deutschland",48.2339889,12.6751487,innklinikum altötting
Klinikum Ingolstadt,"Krumenauerstr. 25, 85049 Ingolstadt, Bayern",Überregionale Stroke Unit,klinikum ingolstadt,True,"Klinikum Ingolstadt, 25, Krumenauerstraße, Friedrichshofen, Friedrichshofen-Hollerstauden, Ingolstadt, Bayern, 85049, Deutschland",48.7694308,11.3772507,klinikum ingolstadt
HELIOS Amper-Klinikum Dachau,"Krankenhausstr. 15, 85221 Dachau, Bayern",Überregionale Stroke Unit,helios amper-klinikum dachau,False,"Krankenhausstr. 15, 85221 Dachau, 15, Krankenhausstraße, Steinkirchen, Webling, Dachau, Landkreis Dachau, Bayern, 85221, Deutschland",48.2649268,11.4288371,helios amper-klinikum dachau
Ilmtalklinik Pfaffenhofen,"Krankenhausstr. 70, 85276 Pfaffenhofen, Bayern",Regionale Stroke Unit,ilmtalklinik pfaffenhofen,False,"Eingang Liegendkranke, 70, Krankenhausstraße, Pfaffenhofen an der Ilm, Landkreis Pfaffenhofen an der Ilm, Bayern, 85276, Deutschland",48.5180908,11.4991655,ilmtalklinik pfaffenhofen
Klinikum Freising GmbH,"Alois-Steinecker-Str. 18, 85354 Freising, Bayern",Telemedizinisch vernetzte Stroke Unit,klinikum freising gmbh,False,"Klinikum Freising, 18, Alois-Steinecker-Straße, Eichenfeldsiedlung, Freising Nord, Freising, Landkreis Freising, Bayern, 85354, Deutschland",48.4050378,11.7446064,klinikum freising gmbh
Klinikum Landkreis Erding,"Bajuwarenstr. 5, 85435 Erding, Bayern",Telemedizinisch vernetzte Stroke Unit,klinikum landkreis erding,False,"5, Bajuwarenstraße, Klettham, Altenerding, Erding, Landkreis Erding, Bayern, 85435, Deutschland",48.2945618,11.8964404,klinikum landkreis erding
kbo-Isar-Amper-Klinikum München-Ost,"Vockestr. 72, 85540 Haar, Bayern",Regionale Stroke Unit,kbo-isar-amper-klinikum münchen-ost,False,"Verwaltung IAK-MO, 72, Vockestraße, Eglfing, Haar, Landkreis München, Bayern, 85540, Deutschland",48.117152,11.7434122,kbo-isar-amper-klinikum münchen-ost
Kreisklinik Ebersberg,"Pfarrer-Guggetzer-Str. 3, 85560 Ebersberg, Bayern",Telemedizinisch vernetzte Stroke Unit,kreisklinik ebersberg,False,"Kreisklinik Ebersberg, 3, Pfarrer-Guggetzer-Straße, Hupfauer Höhe, Aßlkofen, Ebersberg, Landkreis Ebersberg, Bayern, 85560, Deutschland",48.0763184,11.9604748,kreisklinik ebersberg
Universitätsklinikum Augsburg,"Stenglinstr. 2, 86156 Augsburg, Bayern",Überregionale Stroke Unit,universitätsklinikum augsburg,True,"Universitätsklinikum Augsburg, 2, Stenglinstraße, Kriegshaber, Augsburg, Bayern, 86156, Deutschland",48.3848965,10.8396834,universitätsklinikum augsburg
"Klinikverbund Allgäu gGmbH, Klinikum Kempten","Robert-Weixler-Str. 50, 87439 Kempten, Bayern",Überregionale Stroke Unit,klinikverbund allgäu ggmbh klinikum kempten,False,"Robert-Weixler-Straße, Thingers, Kempten (Allgäu), Bayern, 87439, Deutschland",47.7317312,10.3012769,"klinikverbund allgäu ggmbh, klinikum kempten"
"Kliniken Ostallgäu-Kaufbeuren, Klinikum Kaufbeuren","Dr.-Gutermann-Str. 2, 87600 Kaufbeuren, Bayern",Regionale Stroke Unit,kliniken ostallgäu-kaufbeuren klinikum kaufbeuren,False,"Klinikum Kaufbeuren Ostallgäu, 2, Dr.-Gutermann-Straße, Am Kaiserweiher, Kaufbeuren, Bayern, 87600, Deutschland",47.8880549,10.610978,"kliniken ostallgäu-kaufbeuren, klinikum kaufbeuren"
Klinikum Memmingen,"Bismarckstr. 23, 87700 Memmingen, Bayern",Regionale Stroke Unit,klinikum memmingen,False,"Klinikum Memmingen, 23, Bismarckstraße, Oberesch, Buxachtal, Memmingen, Bayern, 87700, Deutschland",47.9824646,10.1689987,klinikum memmingen
Klinikum Friedrichshafen GmbH,"Röntgenstr. 2, 88048 Friedrichshafen, Baden-Württemberg",Regionale Stroke Unit,klinikum friedrichshafen gmbh,False,"Klinikum Friedrichshafen, 2, Röntgenstraße, Manzell, Friedrichshafen, Verwaltungsgemeinschaft Friedrichshafen, Bodenseekreis, Baden-Württemberg, 88048, Deutschland",47.6728136,9.4300011,klinikum friedrichshafen gmbh
OSK St. Elisabethen-Klinikum,"Elisabethenstr. 15, 88212 Ravensburg, Baden-Württemberg",Überregionale Stroke Unit,osk st elisabethen-klinikum,True,"D, 15, Elisabethenstraße, Kammerbrühl, Nordstadt, Ravensburg, Verwaltungsverband Mittleres Schussental, Landkreis Ravensburg, Baden-Württemberg, 88212, Deutschland",47.7876455,9.6215075,osk st. elisabethen-klinikum
Sana Klinikum Landkreis Biberach,"Marie-Curie-Str. 4, 88400 Biberach, Baden-Württemberg",Regionale Stroke Unit,sana klinikum landkreis biberach,False,"4, Marie-Curie-Straße, Biberach an der Riß, Verwaltungsgemeinschaft Biberach an der Riß, Landkreis Biberach, Baden-Württemberg, 88400, Deutschland",48.1127032,9.7804263,sana klinikum landkreis biberach
RKU - Universitäts- und Rehabilitationskliniken Ulm gGmbH,"Virchowstraße 58, 89081 Ulm, Baden-Württemberg",Überregionale Stroke Unit,rku - universitäts- und rehabilitationskliniken ulm ggmbh,True,"58, Virchowstraße, Eselsberg, Ulm, Baden-Württemberg, 89075, Deutschland",48.4151088,9.9375732,rku - universitäts- und rehabilitationskliniken ulm ggmbh
Bundeswehrkrankenhaus Ulm,"Eselsbergsteige 145, 89081 Ulm, Baden-Württemberg",Regionale Comprehensive Stroke Unit,bundeswehrkrankenhaus ulm,False,"145, Eselsbergsteige, Eselsberg, Ulm, Baden-Württemberg, 89075, Deutschland",48.4141482,9.9472182,bundeswehrkrankenhaus ulm
Bezirkskrankenhaus Günzburg,"Lindenallee 2, 89312 Günzburg, Bayern",Überregionale Stroke Unit,bezirkskrankenhaus günzburg,True,"Therapeutisches Reiten, 2, Lindenallee, Reisensburg, Nornheim, Günzburg, Landkreis Günzburg, Bayern, 89312, Deutschland",48.4592384,10.2963769,bezirkskrankenhaus günzburg
Klinikum Heidenheim,"Schloßhaustr. 100, 89522 Heidenheim, Baden-Württemberg",Regionale Stroke Unit,klinikum heidenheim,False,"100, Schloßhaustraße, Schwesternwohnheim, Heidenheim an der Brenz, Verwaltungsgemeinschaft Heidenheim an der Brenz, Landkreis Heidenheim, Baden-Württemberg, 89522, Deutschland",48.6722184,10.1406,klinikum heidenheim
Klinikum Nürnberg Süd,"Kreuzburger Straße 1, 90471 Nürnberg, Bayern",Überregionale Stroke Unit,klinikum nürnberg süd,False,"Harley-Davidson, 1, Kreuzburger Straße, Langwasser Südost, Langwasser, Nürnberg, Bayern, 90471, Deutschland",49.4114452,11.1416462,klinikum nürnberg süd
Krankenhaus Rummelsberg GmbH,"Rummelsberg 71, 90592 Schwarzenbruck, Bayern",Regionale Stroke Unit,krankenhaus rummelsberg gmbh,False,"Wichernhaus, 71, Rummelsberg, Fröschau, Rummelsberg, Schwarzenbruck, Landkreis Nürnberger Land, Bayern, 90592, Deutschland",49.3619289,11.2639441,krankenhaus rummelsberg gmbh
Klinikum Fürth,"Jakob-Henle-Str. 1, 90766 Fürth, Bayern",Überregionale Stroke Unit,klinikum fürth,False,"1, Jakob-Henle-Straße, Schwand, Fürth, Bayern, 90766, Deutschland",49.4838721,10.9721191,klinikum fürth
Universitätsklinikum Erlangen,"Schwabachanlage 6, 91054 Erlangen, Bayern",Überregionale Stroke Unit,universitätsklinikum erlangen,True,"Kopfkliniken, 6, Schwabachanlage, Burgberg, Erlangen, Bayern, 91054, Deutschland",49.6029905,11.007665,universitätsklinikum erlangen
Diakoneo Klinik Schwabach gGmbH,"Berchtoldstr. 23, 91126 Schwabach, Bayern",Regionale Stroke Unit,diakoneo klinik schwabach ggmbh,False,"23, Berchtoldstraße, Nasbach, Unterreichenbach, Schwabach, Bayern, 91126, Deutschland",49.3343589,11.0124422,diakoneo klinik schwabach ggmbh
Kreisklinik Roth,"Weinbergweg 14, 91154 Roth, Bayern",Telemedizinisch vernetzte Stroke Unit,kreisklinik roth,False,"Kreisklinik Roth, 14, Weinbergweg, Kiliansdorf, Roth, Landkreis Roth, Bayern, 91154, Deutschland",49.2356345,11.0721655,kreisklinik roth
Klinikum Forchheim,"Krankenhausstr. 10, 91301 Forchheim, Bayern",Telemedizinisch vernetzte Stroke Unit,klinikum forchheim,False,"10, Krankenhausstraße, Forchheim, Landkreis Forchheim, Bayern, 91301, Deutschland",49.7133072,11.0793153,klinikum forchheim
ANregiomed Klinikum Ansbach,"Escherichstr. 1, 91522 Ansbach, Bayern",Regionale Stroke Unit,anregiomed klinikum ansbach,False,"Klinikum Ansbach, 1, Escherichstraße, Weinbergplateau, Neuses, Ansbach, Bayern, 91522, Deutschland",49.3206271,10.5591221,anregiomed klinikum ansbach
ANregiomed Klinik Dinkelsbühl,"Crailsheimer Str. 6, 91550 Dinkelsbühl, Bayern",Telemedizinisch vernetzte Stroke Unit,anregiomed klinik dinkelsbühl,False,"Klinik Dinkelsbühl, 6, Crailsheimer Straße, Maulmacher, Dinkelsbühl, Landkreis Ansbach, Bayern, 91550, Deutschland",49.0749163,10.3178151,anregiomed klinik dinkelsbühl
Klinikum Altmühlfranken Gunzenhausen,"Albert-Schweitzer-Str. 90, 91710 Gunzenhausen, Bayern",Telemedizinisch vernetzte Stroke Unit,klinikum altmühlfranken gunzenhausen,False,"Klinikum Altmühlfranken Gunzenhausen, 90, Albert-Schweitzer-Straße, Lohmühle, Gunzenhausen, Landkreis Weißenburg-Gunzenhausen, Bayern, 91710, Deutschland",49.1080799,10.7739425,klinikum altmühlfranken gunzenhausen
Klinikum St. Marien Amberg,"Mariahilfbergweg 30, 92224 Amberg, Bayern",Überregionale Stroke Unit,klinikum st marien amberg,False,"30, Mariahilfbergweg, Amberg, Bayern, 92224, Deutschland",49.4476585,11.8682962,klinikum st. marien amberg
Klinikum Neumarkt,"Nürnberger Str. 12, 92318 Neumarkt, Bayern",Regionale Stroke Unit,klinikum neumarkt,False,"Klinikum Neumarkt i.d.OPf., 12, Nürnberger Straße, Holzheim, Neumarkt in der Oberpfalz, Landkreis Neumarkt in der Oberpfalz, Bayern, 92318, Deutschland",49.2862589,11.4523605,klinikum neumarkt
Barmherzige Brüder Krankenhaus St. Barbara Schwandorf,"Steinberger Str. 24, 92421 Schwandorf, Bayern",Telemedizinisch vernetzte Stroke Unit,barmherzige brüder krankenhaus st barbara schwandorf,False,"Krankenhaus St. Barbara, 24, Steinberger Straße, Rothlindenviertel, Nattermoos, Schwandorf, Landkreis Schwandorf, Bayern, 92421, Deutschland",49.3161365,12.1140734,barmherzige brüder krankenhaus st. barbara schwandorf
"Kliniken Nordoberpfalz, Klinikum Weiden","Söllnerstr. 15, 92637 Weiden, Bayern",Überregionale Stroke Unit,kliniken nordoberpfalz klinikum weiden,True,"15, Söllnerstraße, Innenstadt, Stockerhut, Weiden in der Oberpfalz, Bayern, 92637, Deutschland",49.6804437,12.1655239,"kliniken nordoberpfalz, klinikum weiden"
Krankenhaus Barmherzige Brüder Regensburg,"Prüfeninger Str. 74, 93049 Regensburg, Bayern",Überregionale Stroke Unit,krankenhaus barmherzige brüder regensburg,True,"74, Prüfeninger Straße, Innerer Westen, Königswiesen, Regensburg, Bayern, 93049, Deutschland",49.0161063,12.0670961,krankenhaus barmherzige brüder regensburg
medbo Bezirksklinikum Regensburg,"Universitätsstr. 98a, 93053 Regensburg, Bayern",Überregionale Stroke Unit,medbo bezirksklinikum regensburg,True,"98a, Universitätsstraße, Neuprüll, Regensburg, Bayern, 93053, Deutschland",48.9937125,12.0884459,medbo bezirksklinikum regensburg
Asklepios Klinik im Städtedreieck,"Dr.-Sauerbruch-Str. 1, 93133 Burglengenfeld, Bayern",Telemedizinisch vernetzte Stroke Unit,asklepios klinik im städtedreieck,False,"Dr. med. Andreas Walberer, 1, Doktor-Sauerbruch-Straße, Wölland, Burglengenfeld, Landkreis Schwandorf, Bayern, 93133, Deutschland",49.2034964,12.035178,asklepios klinik im städtedreieck
Sana Kliniken des Landkreises Cham GmbH,"August-Holz-Str. 1, 93413 Cham, Bayern",Telemedizinisch vernetzte Stroke Unit,sana kliniken des landkreises cham gmbh,False,"1a, August-Holz-Straße, Cham-West, Cham, Landkreis Cham, Bayern, 93413, Deutschland",49.2248511,12.6598306,sana kliniken des landkreises cham gmbh
Klinikum Passau,"Innstr. 76, 94032 Passau, Bayern",Überregionale Stroke Unit,klinikum passau,True,"Klinikum Passau, 76, Innstraße, Altstadt, Passau, Bayern, 94032, Deutschland",48.5650356,13.4453357,klinikum passau
Arberlandklinik Zwiesel,"Arberlandstr. 1, 94227 Zwiesel, Bayern",Telemedizinisch vernetzte Stroke Unit,arberlandklinik zwiesel,False,"ARBERLANDKlinik Zwiesel, 1, Arberlandstraße, Zwieselberg, Zwiesel, Landkreis Regen, Bayern, 94227, Deutschland",49.0072976,13.2183653,arberlandklinik zwiesel
Barmherzige Brüder Klinikum St. Elisabeth Straubing,"St.-Elisabeth-Str. 23, 94315 Straubing, Bayern",Regionale Stroke Unit,barmherzige brüder klinikum st elisabeth straubing,True,"Klinikum St. Elisabeth Straubing, 23, Sankt-Elisabeth-Straße, Straubing-Ost, Straubing, Bayern, 94315, Deutschland",48.8864296,12.5909968,barmherzige brüder klinikum st. elisabeth straubing
DONAUISAR Klinikum Deggendorf-Dingolfing-Landau gKU,"Perlasberger Str. 41, 94469 Deggendorf, Bayern",Überregionale Stroke Unit,donauisar klinikum deggendorf-dingolfing-landau gku,False,"DONAUISAR Klinikum Deggendorf, 41, Perlasberger Straße, Oberperlasberg, Kobelsberg, Breitenberg, Deggendorf, Landkreis Deggendorf, Bayern, 94469, Deutschland",48.8391963,12.9698983,donauisar klinikum deggendorf-dingolfing-landau gku
Bezirksklinikum Mainkofen,"Mainkofener Straße 19, 94469 Deggendorf, Bayern",Regionale Stroke Unit,bezirksklinikum mainkofen,False,"19, Mainkofener Straße, Mainkofen, Deggendorf, Landkreis Deggendorf, Bayern, 94469, Deutschland",48.8090605,12.8960392,bezirksklinikum mainkofen
Sana Klinikum Hof,"Eppenreuther Str. 9, 95032 Hof, Bayern",Regionale Stroke Unit,sana klinikum hof,False,"9, Eppenreuther Straße, Krötenbruck, Alsenberg, Hof, Bayern, 95032, Deutschland",50.3029575,11.9150945,sana klinikum hof
Kliniken HochFranken Klinik Münchberg,"Hofer Str. 40, 95213 Münchberg, Bayern",Telemedizinisch vernetzte Stroke Unit,kliniken hochfranken klinik münchberg,False,"Hochfrankenklinik Münchberg, 40, Hofer Straße, Schlegel, Münchberg, Landkreis Hof, Bayern, 95213, Deutschland",50.1951485,11.7943245,kliniken hochfranken klinik münchberg
Klinikum Kulmbach,"Albert-Schweitzer-Str. 10, 95326 Kulmbach, Bayern",Regionale Stroke Unit,klinikum kulmbach,False,"10, Albert-Schweitzer-Straße, Blaich, Kulmbach, Landkreis Kulmbach, Bayern, 95326, Deutschland",50.1181109,11.466522,klinikum kulmbach
Klinik Hohe Warte Bayreuth,"Siegmundstraße 2, 95445 Bayreuth, Bayern",Überregionale Stroke Unit,klinik hohe warte bayreuth,False,"2, Siegmundstraße, Hohe Warte, Bürgerreuth, Festspielhügel, Grüner Baum, Bayreuth, Bayern, 95445, Deutschland",49.9651047,11.5863523,klinik hohe warte bayreuth
"Sozialstiftung Bamberg, Klinikum Bamberg","Buger Str. 80, 96049 Bamberg, Bayern",Überregionale Stroke Unit,sozialstiftung bamberg klinikum bamberg,False,"Klinikum am Bruderwald, 80, Buger Straße, Am Bruderwald, Bug, Bamberg, Bayern, 96049, Deutschland",49.8671849,10.8905602,"sozialstiftung bamberg, klinikum bamberg"
REGIOMED Klinikum Lichtenfels,"Prof.-Arneth-Str. 2b, 96215 Lichtenfels, Bayern",Telemedizinisch vernetzte Stroke Unit,regiomed klinikum lichtenfels,False,"2b, Prof.-Arneth-Straße, Horbhof, Burgberg, Lichtenfels, Landkreis Lichtenfels, Bayern, 96215, Deutschland",50.1384545,11.0814884,regiomed klinikum lichtenfels
REGIOMED Klinikum Coburg,"Ketschendorfer Str. 33, 96450 Coburg, Bayern",Regionale Stroke Unit,regiomed klinikum coburg,False,"Klinikum Coburg, 33, Ketschendorfer Straße, Ketschendorf, Creidlitz, Coburg, Bayern, 96450, Deutschland",50.2468801,10.973119,regiomed klinikum coburg
REGIOMED Klinikum Sonneberg,"Neustadter Str. 61, 96515 Sonneberg, Thüringen",Telemedizinisch vernetzte Stroke Unit,regiomed klinikum sonneberg,False,"REGIOMED Klinikum Sonneberg/Neuhaus, 61, Neustadter Straße, Wolkenrasen, Bettelhecken, Hönbach, Sonneberg, Landkreis Sonneberg, Thüringen, 96515, Deutschland",50.3539322,11.1631209,regiomed klinikum sonneberg
Klinikum Würzburg Mitte gGmbH Standort Juliusspital,"Juliuspromenade 15, 97070 Würzburg, Bayern",Regionale Stroke Unit,klinikum würzburg mitte ggmbh standort juliusspital,False,"15, Juliuspromenade, Würzburg Altstadt, Würzburg, Bayern, 97070, Deutschland",49.796998,9.9293523,klinikum würzburg mitte ggmbh standort juliusspital
Universitätsklinikum Würzburg AöR,"Josef-Schneider-Str. 11, 97080 Würzburg, Bayern",Überregionale Stroke Unit,universitätsklinikum würzburg aör,True,"B1 - Neurochirurgie & Neurologie, 11, Josef-Schneider-Straße, Grombühl, Würzburg, Bayern, 97080, Deutschland",49.8040893,9.9557278,universitätsklinikum würzburg aör
Klinik Kitzinger Land,"Keltenstr. 67, 97318 Kitzingen, Bayern",Telemedizinisch vernetzte Stroke Unit,klinik kitzinger land,False,"Klinik Kitzinger Land, 67, Keltenstraße, Kitzingen, Landkreis Kitzingen, Bayern, 97318, Deutschland",49.7437984,10.1395039,klinik kitzinger land
Leopoldina-Krankenhaus der Stadt Schweinfurt GmbH,"Gustav-Adolf-Str. 8, 97422 Schweinfurt, Bayern",Überregionale Stroke Unit,leopoldina-krankenhaus der stadt schweinfurt gmbh,True,"Leopoldina-Krankenhaus, 8, Gustav-Adolf-Straße, Höllental, Hochfeld, Schweinfurt, Bayern, 97422, Deutschland",50.0517105,10.2438682,leopoldina-krankenhaus der stadt schweinfurt gmbh
RHÖN-KLINIKUM Campus Bad Neustadt,"Von-Guttenberg-Str. 11, 97616 Bad Neustadt an der Saale, Bayern",Überregionale Stroke Unit,rhön-klinikum campus bad neustadt,False,"Ärztlicher Notdienst Bereitschaftspraxis, 11, von-Guttenberg-Straße, Herschfeld, Bad Neustadt an der Saale, Landkreis Rhön-Grabfeld, Bayern, 97616, Deutschland",50.3227554,10.2343508,rhön-klinikum campus bad neustadt
Klinikum Main-Spessart,"Ludwigstr. 6, 97816 Lohr, Bayern",Regionale Stroke Unit,klinikum main-spessart,False,"6, Ludwigstraße, Lohr, Lohr-Lindig, Lohr am Main, Landkreis Main-Spessart, Bayern, 97816, Deutschland",49.9951358,9.5708318,klinikum main-spessart
Caritas-Krankenhaus Bad Mergentheim,"Uhlandstr. 7, 97980 Bad Mergentheim, Baden-Württemberg",Regionale Stroke Unit,caritas-krankenhaus bad mergentheim,False,"Haus A+B+C - Stationen, 7, Uhlandstraße, Drillberg, Bad Mergentheim, Verwaltungsgemeinschaft Bad Mergentheim, Main-Tauber-Kreis, Baden-Württemberg, 97980, Deutschland",49.4904375,9.7638291,caritas-krankenhaus bad mergentheim
SRH Zentralklinikum Suhl,"Albert-Schweitzer-Str. 2, 98527 Suhl, Thüringen",Regionale Comprehensive Stroke Unit,srh zentralklinikum suhl,False,"Zentralklinikum Suhl, 2, Albert-Schweitzer-Straße, Neundorf, Suhl, Thüringen, 98527, Deutschland",50.6024675,10.7099241,srh zentralklinikum suhl
HELIOS Klinikum Meiningen,"Am Kirschengründchen 12a, 98617 Meiningen, Thüringen",Überregionale Stroke Unit,helios klinikum meiningen,True,"12a, Am Kirschengründchen, Dreißigacker-Süd, Dreißigacker, Meiningen, Landkreis Schmalkalden-Meiningen, Thüringen, 98617, Deutschland",50.5578621,10.3908022,helios klinikum meiningen
HELIOS Fachkliniken Hildburghausen,"Eisfelder Str. 41, 98646 Hildburghausen, Thüringen",Regionale Stroke Unit,helios fachkliniken hildburghausen,False,"41, Eisfelder Straße, Birkenfeld, Hildburghausen, Landkreis Hildburghausen, Thüringen, 98646, Deutschland",50.4252469,10.7443159,helios fachkliniken hildburghausen
HELIOS Klinikum Erfurt,"Nordhäuser Str. 66, 99089 Erfurt, Thüringen",Überregionale Stroke Unit,helios klinikum erfurt,True,"66, Nordhäuser Straße, Andreasvorstadt, Erfurt, Thüringen, 99089, Deutschland",50.9936188,11.0097212,helios klinikum erfurt
Sophien- und Hufeland-Klinikum gGmbH,"Henry-van-de-Velde-Str. 1, 99425 Weimar, Thüringen",Regionale Stroke Unit,sophien- und hufeland-klinikum ggmbh,False,"1, Henry-van-de-Velde-Straße, Südstadt, Gelmeroda, Weimar, Thüringen, 99425, Deutschland",50.9617211,11.32007,sophien- und hufeland-klinikum ggmbh
Zentralklinik Bad Berka,"Robert-Koch-Allee 9, 99438 Bad Berka, Thüringen",Regionale Stroke Unit,zentralklinik bad berka,True,"Zentralklinik Bad Berka, 9, Robert-Koch-Allee, Bad Berka, Landkreis Weimarer Land, Thüringen, 99438, Deutschland",50.8900432,11.265938,zentralklinik bad berka
Südharz Klinikum Nordhausen gGmbH,"Dr.-Robert-Koch-Str. 39, 99734 Nordhausen, Thüringen",Regionale Stroke Unit,südharz klinikum nordhausen ggmbh,False,"Südharz Klinikum, 39, Dr.-Robert-Koch-Straße, Hagenberg-Siedlung, Nordhausen-Nord, Nordhausen, Landkreis Nordhausen, Thüringen, 99734, Deutschland",51.5162705,10.7947784,südharz klinikum nordhausen ggmbh
St. Georg Klinikum Eisenach,"Mühlhäuser Str. 94, 99817 Eisenach, Thüringen",Regionale Stroke Unit,st georg klinikum eisenach,False,"94, Mühlhäuser Straße, Eisenach, Wartburgkreis, Thüringen, 99817, Deutschland",50.9886941,10.3150672,st. georg klinikum eisenach
Helios Klinikum Gotha,"Heliosstr. 1, 99867 Gotha, Thüringen",Regionale Stroke Unit,helios klinikum gotha,False,"Helios Klinikum Gotha, 1, Heliosstraße, Sundhausen, Boilstädt, Gotha, Landkreis Gotha, Thüringen, 99867, Deutschland",50.9284165,10.6776104,helios klinikum gotha
Ökumenisches Hainich Klinikum gGmbH,"Pfafferode 102, 99974 Mühlhausen, Thüringen",Regionale Stroke Unit,ökumenisches hainich klinikum ggmbh,False,"Ökumenisches Hainich Klinikum, 102, Pfafferode, Mühlhausen/Thüringen, Unstrut-Hainich-Kreis, Thüringen, 99974, Deutschland",51.2093239,10.4019409,ökumenisches hainich klinikum ggmbh
AMEOS Klinikum Heiligenhafen,"Friedrich-Ebert-Straße 100, 23774 Heiligenhafen",,,False,"AMEOS Klinikum Heiligenhafen, 100, Friedrich-Ebert-Straße, Heiligenhafen, Kreis Ostholstein, Schleswig-Holstein, 23774, Deutschland",54.3744364,10.9583152,ameos klinikum heiligenhafen
Westküstenkliniken Brunsbüttel und Heide gGmbH,"Esmarchstraße 50, 25746 Heide",,,False,"Westküstenklinikum Heide, 50, Esmarchstraße, Heide, Kreis Dithmarschen, Schleswig-Holstein, 25746, Deutschland",54.1998975,9.0776793,westküstenkliniken brunsbüttel und heide ggmbh
HELIOS Klinikum Gifhorn GmbH,"Campus 6, 38518 Gifhorn",,,False,"HELIOS Klinikum Gifhorn, 6, Campus, Gamsen, Gifhorn, Niedersachsen, 38518, Deutschland",52.4971131,10.5482638,helios klinikum gifhorn gmbh
Helios St. Marienberg Klinik Helmstedt GmbH,"Conringstraße 26, 38350 Helmstedt",,,False,"HELIOS St. Marienberg Klinik Helmstedt, 26, Conringstraße, Helmstedt, Landkreis Helmstedt, Niedersachsen, 38350, Deutschland",52.2318762,10.9993091,helios st. marienberg klinik helmstedt gmbh
HELIOS Albert-Schweitzer-Klinik Northeim [NOM],"Albert-Schweitzer-Weg  1 , 37154 Northeim",,,False,"HELIOS Albert-Schweitzer-Klinik Northeim, 1, Albert-Schweitzer-Weg, Northeim, Landkreis Northeim, Niedersachsen, 37154, Deutschland",51.7298077,9.9788643,helios albert-schweitzer-klinik northeim [nom]
Helios Klinik Herzberg/Osterode,"Dr.-Frössel-Allee 1, 37412 Herzberg am Harz",,,False,"Helios Klinik Herzberg/Osterode, 1, Dr.-Frössel-Allee, Herzberg am Harz, Landkreis Göttingen, Niedersachsen, 37412, Deutschland",51.6693949,10.343182,helios klinik herzberg/osterode
Klinikum Peine gGmbH,"Virchowstraße 8h, 31226 Peine",,,False,"8H, Virchowstraße, Südstadt, Peine, Landkreis Peine, Niedersachsen, 31226, Deutschland",52.3015987,10.2377915,klinikum peine ggmbh
Helios Klinikum Salzgitter GmbH,"Kattowitzer Str. 191, 38226 Salzgitter",,,False,"Annen Apotheke am Klinikum, 191, Kattowitzer Straße, Fredenberg, Lebenstedt, Ortschaft Nord, Salzgitter, Niedersachsen, 38226, Deutschland",52.1547473,10.3189944,helios klinikum salzgitter gmbh
Städtisches Klinikum Wolfenbüttel gGmbH,"Alter Weg 80, 38302 Wolfenbüttel",,,False,"Städtisches Klinikum Wolfenbüttel, 80, Alter Weg, Schwedenschanze, Wolfenbüttel, Landkreis Wolfenbüttel, Niedersachsen, 38302, Deutschland",52.179908,10.5336512,städtisches klinikum wolfenbüttel ggmbh
Helios Kliniken Mittelweser GmbH,"Ziegelkampstraße 39, 31582 Nienburg",,,False,"Helios Kliniken Mittelweser Nienburg, 39, Ziegelkampstraße, Stadtteil Nienburg, Nienburg/Weser, Landkreis Nienburg/Weser, Niedersachsen, 31582, Deutschland",52.6357175,9.224454,helios kliniken mittelweser gmbh
KRH Klinikum Robert Koch Gehrden,"Von-Reden-Straße 1, 30989 Gehrden",,,False,"KRH Klinikum Robert Koch Gehrden, 1, Von-Reden-Straße, Gehrden, Region Hannover, Niedersachsen, 30989, Deutschland",52.30439,9.5984899,krh klinikum robert koch gehrden
KRH Klinikum Neustadt am Rübenberge,"Lindenstraße  75, 31535 Neustadt am Rübenberge",,,False,"KRH Klinikum Neustadt am Rübenberge, 75, Lindenstraße, Neustadt am Rübenberge, Region Hannover, Niedersachsen, 31535, Deutschland",52.4936335,9.4663147,krh klinikum neustadt am rübenberge
AGAPLESION EV. BATHILDISKRANKENHAUS gemeinnützige GmbH,"Maulbeerallee 4, 31812 Bad Pyrmont",,,False,"Evangelisches Bathildiskrankenhaus, 4, Maulbeerallee, Oesdorf, Löwensen, Bad Pyrmont, Landkreis Hameln-Pyrmont, Niedersachsen, 31812, Deutschland",51.9852832,9.2738537,agaplesion ev. bathildiskrankenhaus gemeinnützige gmbh
Städtisches Klinikum Lüneburg gemeinnützige GmbH,"Bögelstraße 1, 21339 Lüneburg",,,False,"Klinikum Lüneburg, 1, Bögelstraße, Mittelfeld, Lüneburg, Niedersachsen, 21339, Deutschland",53.2402219,10.3958656,städtisches klinikum lüneburg gemeinnützige gmbh
Heidekreis-Klinikum GmbH Krankenhaus Soltau,"Oeninger Weg  30, 29614 Soltau",,,False,"30, Oeninger Weg, Böhmheide, Kernstadt Soltau, Soltau, Heidekreis, Niedersachsen, 29614, Deutschland",52.9893004,9.855866,heidekreis-klinikum gmbh krankenhaus soltau
Elbe Klinikum Stade,"Bremervörder Straße 111, 21682 Stade",,,False,"Elbe Kliniken Stade, 111, Bremervörder Straße, Hahle, Stade, Niedersachsen, 21682, Deutschland",53.5962617,9.4418748,elbe klinikum stade
Ammerland-Klinik Westerstede,"Lange Straße 38, 26655 Westerstede",,,False,"Bundeswehrkrankenhaus Westerstede, 38, Lange Straße, Halstrup, Hollwege, Westerstede, Landkreis Ammerland, Niedersachsen, 26655, Deutschland",53.2574925,7.9185221,ammerland-klinik westerstede
Klinikum Bremen-Ost,"Züricher Straße 40, 28325 Bremen",,,False,"Klinikum Bremen-Ost, 40, Züricher Straße, Ellenerbrok-Schevemoor, Osterholz, Bremen-Ost, Bremen, 28325, Deutschland",53.0640207,8.9402936,klinikum bremen-ost
AGAPLESION Klinikum Hagen gem. GmbH,"Grünstr. 35, 58095 Hagen",,,False,"35, Grünstraße, Oberhagen, Mittelstadt, Hagen-Mitte, Hagen, Nordrhein-Westfalen, 58095, Deutschland",51.3540265,7.4660777,agaplesion klinikum hagen gem. gmbh
Evangelisches Krankenhaus Duisburg-Nord,"Fahrner Straße 133-135, 47169 Duisburg",,,False,"Fahrner Straße, Wehofen, Walsum, Duisburg, Nordrhein-Westfalen, 47169, Deutschland",51.5196647,6.7654338,evangelisches krankenhaus duisburg-nord
QB Solingen 2023 ,"Gotenstraße 1, 42653 Solingen",,,False,"Haus A, 1, Gotenstraße, SBV Siedlung Wasserturm, Gräfrath, Solingen, Nordrhein-Westfalen, 42653, Deutschland",51.1854782,7.0694225,qb solingen 2023
LVR-Klinik Bedburg-Hau,"Bahnstr. 6, 47551 Bedburg-Hau",,,False,"Hauptverwaltung der LVR-Klinik Bedburg-Hau, 6, Bahnstraße, Hau, Bedburg-Hau, Kreis Kleve, Nordrhein-Westfalen, 47551, Deutschland",51.7620027,6.1768454,lvr-klinik bedburg-hau
Katholisches Karl-Leisner Klinikum gGmbH Standort Marienhospital Kevelaer,"Basilikastraße 55, 47623 Kevelaer",,,False,"55, Basilikastraße, Kevelaer Mitte, Kevelaer, Kreis Kleve, Nordrhein-Westfalen, 47623, Deutschland",51.5840564,6.2499893,katholisches karl-leisner klinikum ggmbh standort marienhospital kevelaer
Universitätsklinikum Köln,"Kerpener Straße 62, 50937 Köln",,,False,"Zentralklinikum, 62, Kerpener Straße, Lindenthal, Köln, Nordrhein-Westfalen, 50937, Deutschland",50.9236351,6.9170838,universitätsklinikum köln
Klinikum Oberberg GmbH,"Wilhelm-Breckow-Allee 20, 51643 Gummersbach",,,False,"Kreiskrankenhaus Gummersbach, 20, Wilhelm-Breckow-Allee, Gummersbach, Berstig Süd, Niederseßmar, Gummersbach, Oberbergischer Kreis, Nordrhein-Westfalen, 51643, Deutschland",51.0154919,7.5674469,klinikum oberberg gmbh
GFO Kliniken Rhein-Berg,"Vinzenz-Pallotti-Straße 20, 51429 Bergisch Gladbach-Bensberg",,,False,"20, Vinzenz-Pallotti-Straße, Bockenberg, Moitzfeld, Bergisch Gladbach, Rheinisch-Bergischer Kreis, Nordrhein-Westfalen, 51429, Deutschland",50.961996,7.1755471,gfo kliniken rhein-berg
Kliniken der Stadt Köln gGmbH - Krankenhaus Merheim,"Ostmerheimer Str. 200, 51109 Köln",,,False,"LVR-Klinik, 200, Ostmerheimer Straße, Merheim, Kalk, Köln, Nordrhein-Westfalen, 51109, Deutschland",50.9362537,7.0522784,kliniken der stadt köln ggmbh - krankenhaus merheim
Christophorus Kliniken Coesfeld Dülmen Nottuln,"Südwall 22, 48653 Coesfeld",,,False,"22, Südwall, Coesfeld, Kreis Coesfeld, Nordrhein-Westfalen, 48653, Deutschland",51.9429529,7.1718199,christophorus kliniken coesfeld dülmen nottuln
Katholische Kliniken Emscher-Lippe,"Barbarastraße 1, 45964 Gladbeck",,,False,"St. Barbara-Hospital, 1, Barbarastraße, Mitte I (West), Mitte, Gladbeck, Kreis Recklinghausen, Nordrhein-Westfalen, 45964, Deutschland",51.5747767,6.9873017,katholische kliniken emscher-lippe
Josephs-Hospital Warendorf,"Am Krankenhaus 2, 48231 Warendorf",,,False,"Josephs-Hospital, 2, Am Krankenhaus, Warendorf, Kreis Warendorf, Nordrhein-Westfalen, 48231, Deutschland",51.960742,8.0023983,josephs-hospital warendorf
Klinikum Weser-Egge,"Danziger Str. 17, 33034 Brakel",,,False,"17, Danziger Straße, Brakel, Kreis Höxter, Nordrhein-Westfalen, 33034, Deutschland",51.727542,9.1809293,klinikum weser-egge
Katholische Hospitalvereinigung Ostwestfalen gem. GmbH,"Kiskerstraße 26, 33615 Bielefeld",,,False,"Franziskus Hospital, 26, Kiskerstraße, Mitte, Bielefeld, Nordrhein-Westfalen, 33615, Deutschland",52.0226864,8.5227616,katholische hospitalvereinigung ostwestfalen gem. gmbh
Berufsgenossenschaftliches Universitätsklinikum Bergmannsheil gGmbH,"Bürkle-de-la-Camp-Platz 1, 44789 Bochum",,,False,"Berufsgenossenschaftliches Universitätsklinikum Bergmannsheil GmbH, 1, Bürkle de la Camp-Platz, Ehrenfeld, Wiemelhausen, Bochum-Mitte, Bochum, Nordrhein-Westfalen, 44789, Deutschland",51.4681889,7.2110654,berufsgenossenschaftliches universitätsklinikum bergmannsheil ggmbh
Klinikzentrum Mitte,"Beurhausstraße 40, 44137 Dortmund",,,False,"Städtische Kliniken, 40, Beurhausstraße, Klinikviertel, Innenstadt West, Dortmund, Nordrhein-Westfalen, 44137, Deutschland",51.5083634,7.4567391,klinikzentrum mitte
Helios Klinikum Schwelm,"Dr.-Moeller-Straße 15, 58332 Schwelm",,,False,"Helios Klinikum Schwelm, 15, Dr.-Moeller-Straße, Brunnen, Schwelm, Ennepe-Ruhr-Kreis, Nordrhein-Westfalen, 58332, Deutschland",51.2937365,7.3122248,helios klinikum schwelm
Kreisklinikum Siegen GmbH,"Weidenauer Straße 76, 57076 Siegen",,,False,"Klinikum Siegen, 76, Weidenauer Straße, Weidenau, Siegen, Kreis Siegen-Wittgenstein, Nordrhein-Westfalen, 57076, Deutschland",50.9025222,8.0205245,kreisklinikum siegen gmbh
Knappschaft Kliniken Universitätsklinikum Bochum GmbH,"In der Schornau 23-25, 44892 Bochum",,,False,"Universitätsklinikum Knappschaftskrankenhaus Bochum, 23-25, In der Schornau, Langendreerholz, Langendreer, Bochum-Ost, Bochum, Nordrhein-Westfalen, 44892, Deutschland",51.4639837,7.3272232,knappschaft kliniken universitätsklinikum bochum gmbh
Katholische Kliniken im Märkischen Kreis,"Am Stein 24, 58706 Menden",,,False,"24, Am Stein, Menden (Sauerland), Märkischer Kreis, Nordrhein-Westfalen, 58706, Deutschland",51.4372333,7.800181,katholische kliniken im märkischen kreis
Diakonie Klinikum GmbH,"Wichernstraße 40, 57074 Siegen",,,False,"40, Wichernstraße, Siegen, Kreis Siegen-Wittgenstein, Nordrhein-Westfalen, 57074, Deutschland",50.8515103,8.0184,diakonie klinikum gmbh
Vitos Klinikum Weil-Lahn,"Weilstraße 10, 35789 Weilmünster",,,False,"Vitos Klinik Weilmünster, 10, Weilstraße, Dianenstein, Weilmünster, Landkreis Limburg-Weilburg, Hessen, 35789, Deutschland",50.4241816,8.3908305,vitos klinikum weil-lahn
Sankt Katharinen-Krankenhaus GmbH,"Seckbacher Landstraße 65, 60389 Frankfurt",,,False,"Sankt Katharinen Krankenhaus, 65, Seckbacher Landstraße, Bornheim, Bornheim/Ostend, Frankfurt am Main, Hessen, 60389, Deutschland",50.1361069,8.7105989,sankt katharinen-krankenhaus gmbh
Lahn-Dill-Kliniken GmbH,"Forsthausstraße 1, 35578 Wetzlar",,,False,"1, Forsthausstraße, Sturzkopf, Wetzlar, Lahn-Dill-Kreis, Hessen, 35578, Deutschland",50.538026,8.5306581,lahn-dill-kliniken gmbh
Hochtaunus-Kliniken gGmbH Bad Homburg,"Zeppelinstraße 20, 61352 Bad Homburg",,,False,"Hochtaunus-Kliniken Bad Homburg, 20, Zeppelinstraße, Gonzenheim, Bad Homburg vor der Höhe, Hochtaunuskreis, Hessen, 61352, Deutschland",50.2121193,8.619331,hochtaunus-kliniken ggmbh bad homburg
BDH-Klinik Braunfels gGmbH,"Hubertusstraße 3-7, 35619 Braunfels",,,False,"BDH Klinik Braunfels, 3-7, Hubertusstraße, Braunfels, Lahn-Dill-Kreis, Hessen, 35619, Deutschland",50.5148481,8.3947431,bdh-klinik braunfels ggmbh
Hephata-Klinik,"Schimmelpfengstr. 6, 34613 Schwalmstadt",,,False,"6, Schimmelpfengstraße, Treysa, Schwalmstadt, Schwalm-Eder-Kreis, Hessen, 34613, Deutschland",50.909391,9.1679903,hephata-klinik
Hardtwaldklinik I Werner-Wicker GmbH&Co.KG,"Hardtstraße 31, 34596 Bad Zwesten",,,False,"31, Hardtstraße, Bad Zwesten, Schwalm-Eder-Kreis, Hessen, 34596, Deutschland",51.0619589,9.1719989,hardtwaldklinik i werner-wicker gmbh&co.kg
Asklepios Klinik Seligenstadt,"Asklepiosstraße 1, 63500 Seligenstadt",,,False,"Asklepiosstraße, Seligenstadt, Landkreis Offenbach, Hessen, 63500, Deutschland",50.0410843,8.9646893,asklepios klinik seligenstadt
Bürgerhospital Friedberg,"Ockstädter Str. 3-5, 61169 Friedberg",,,False,"Bürgerhospital Friedberg, 3-5, Ockstädter Straße, Friedberg, Friedberg (Hessen), Wetteraukreis, Hessen, 61169, Deutschland",50.3348634,8.751358,bürgerhospital friedberg
Klinikum Werra Meißner GmbH,"Elsa-Brändström-Straße 1, 37269 Eschwege",,,False,"1, Elsa-Brändström-Straße, Eschwege, Werra-Meißner-Kreis, Hessen, 37269, Deutschland",51.1827575,10.0503338,klinikum werra meißner gmbh
Rhein-Mosel-Fachklinik,"Vulkanstraße 58, 56626 Andernach",,,False,"58, Vulkanstraße, Andernach, Landkreis Mayen-Koblenz, Rheinland-Pfalz, 56626, Deutschland",50.4289751,7.397457,rhein-mosel-fachklinik
Diakonie Krankenhaus kreuznacher diakonie,"Ringstraße 64, 55543 Bad Kreuznach",,,False,"Diakonie Kliniken Bad Kreuznach gGmbH | Ringstraße, 64, Ringstraße, Bad Kreuznach, Landkreis Bad Kreuznach, Rheinland-Pfalz, 55543, Deutschland",49.8367828,7.863625,diakonie krankenhaus kreuznacher diakonie
Gesundheitszentrum Glantal,"Liebfrauenberg 32, 55590 Meisenheim",,,False,"Gesundheitszentrum Glantal, 32, Liebfrauenberg, Hof Wieseck, Meisenheim, Nahe-Glan, Landkreis Bad Kreuznach, Rheinland-Pfalz, 55590, Deutschland",49.7065676,7.6768165,gesundheitszentrum glantal
Stadtklinik Frankenthal,"Elsa-Brändström-Straße 1, 67227 Frankenthal",,,False,"1, Elsa-Brändström-Straße, Frankenthal Kernstadt, Frankenthal (Pfalz), Rheinland-Pfalz, 67227, Deutschland",49.5427022,8.3311645,stadtklinik frankenthal
Marienhaus Klinikum Hetzelstift,"Stiftstraße 10, 67434 Neustadt an der Weinstraße",,,False,"Hetzelstift, 10, Stiftstraße, Neustadt an der Weinstraße, Rheinland-Pfalz, 67434, Deutschland",49.3463039,8.1494815,marienhaus klinikum hetzelstift
Städtisches Krankenhaus Pirmasens gGmbH,"Pettenkoferstraße 22, 66955 Pirmasens",,,False,"Städtisches Krankenhaus Pirmasens, 22, Pettenkoferstraße, Ruhbank, Pirmasens, Rheinland-Pfalz, 66955, Deutschland",49.1930487,7.6177302,städtisches krankenhaus pirmasens ggmbh
Rheinhessen-Fachklinik Alzey,"Dautenheimer Landstraße 66, 55232 Alzey",,,False,"Rheinhessen-Fachklinik Alzey, 66, Dautenheimer Landstraße, Dautenheim, Alzey, Landkreis Alzey-Worms, Rheinland-Pfalz, 55232, Deutschland",49.7409767,8.1315463,rheinhessen-fachklinik alzey
Pfalzklinikum AdöR - Standort Klingenmünster,"Weinstraße 100, 76889 Klingenmünster",,,False,"Weinstraße, Klingenmünster, Bad Bergzabern, Landkreis Südliche Weinstraße, Rheinland-Pfalz, 76889, Deutschland",49.1390628,8.0171133,pfalzklinikum adör - standort klingenmünster
Asklepios Südpfalzkliniken GmbH,"Luitpoldstrasse 14, 76870 Kandel",,,False,"14, Luitpoldstraße, Minderslachen, Kandel, Landkreis Germersheim, Rheinland-Pfalz, 76870, Deutschland",49.0861838,8.2008809,asklepios südpfalzkliniken gmbh
Rems-Murr-Klinik Schorndorf,"Schlichtener Straße 105, 73614 Schorndorf",,,False,"Rems-Murr-Klinik, 105, Schlichtener Straße, Schorndorf, Vereinbarte Verwaltungsgemeinschaft der Stadt Schorndorf, Rems-Murr-Kreis, Baden-Württemberg, 73614, Deutschland",48.7972867,9.5296473,rems-murr-klinik schorndorf
Hohenloher Krankenhaus gGmbH Standort: Öhringen,"Kastellstraße 5, 74613 Öhringen",,,False,"Görkem Pizza & Kebap, 5/1, Kastellstraße, Altstadt, Möhrig, Öhringen, Verwaltungsgemeinschaft Öhringen, Hohenlohekreis, Baden-Württemberg, 74613, Deutschland",49.2064207,9.4987491,hohenloher krankenhaus ggmbh standort: öhringen
Stauferklinikum Schwäbisch Gmünd,"Wetzgauer Str. 85, 73557 Mutlangen",,,False,"Dialyse Stauferklinikum Mutlangen, 85, Wetzgauer Straße, Mutlangen, Verwaltungsverband Schwäbischer Wald, Ostalbkreis, Baden-Württemberg, 73557, Deutschland",48.8194625,9.7882911,stauferklinikum schwäbisch gmünd
Klinikum Stuttgart - Gemeinnützige Kommunalanstalt öffentlichen Rechts,"Kriegsbergstraße 60, 70174 Stuttgart",,,False,"Katharinenhospital, 60, Kriegsbergstraße, Universität, Stuttgart-Mitte, Stuttgart, Baden-Württemberg, 70174, Deutschland",48.7837421,9.1733136,klinikum stuttgart - gemeinnützige kommunalanstalt öffentlichen rechts
QSB-Mos 2023,"Knopfweg 1, 74821 Mosbach",,,False,"Neckar-Odenwald Kliniken Mosbach, 1, Knopfweg, Mosbach, Verwaltungsgemeinschaft Mosbach, Neckar-Odenwald-Kreis, Baden-Württemberg, 74821, Deutschland",49.3558855,9.1530258,qsb-mos 2023
GRN-Klinik Sinsheim,"Alte Waibstadter Straße 2, 74889 Sinsheim",,,False,"GRN-Klinik Sinsheim, 2, Alte Waibstadter Straße, Oststadt, Sinsheim, Verwaltungsgemeinschaft Sinsheim, Rhein-Neckar-Kreis, Baden-Württemberg, 74889, Deutschland",49.2524613,8.8902851,grn-klinik sinsheim
Kreiskliniken Calw,"Eduard-Conz-Straße 6, 75365 Calw",,,False,"Kliniken Calw, 6, Eduard-Conz-Straße, Wimberg, Calw, Verwaltungsgemeinschaft Calw, Landkreis Calw, Baden-Württemberg, 75365, Deutschland",48.7154508,8.744846,kreiskliniken calw
Klinikum Freudenstadt,"Karl-von-Hahn-Straße 100, 72250 Freudenstadt",,,False,"Klinikum Freudenstadt, 100, Karl-von-Hahn-Straße, Freudenstadt, Vereinbarte Verwaltungsgemeinschaft Freudenstadt, Landkreis Freudenstadt, Baden-Württemberg, 72250, Deutschland",48.4759169,8.4053851,klinikum freudenstadt
HELIOS Klinik Titisee-Neustadt,"Jostalstraße 12, 79822 Titisee-Neustadt",,,False,"Helios Klinik Titisee-Neustadt, 12, Jostalstraße, Spiegelhaldenhäusle, Neustadt im Schwarzwald, Titisee-Neustadt, Verwaltungsgemeinschaft Titisee-Neustadt, Landkreis Breisgau-Hochschwarzwald, Baden-Württemberg, 79822, Deutschland",47.9257363,8.1870108,helios klinik titisee-neustadt
Kreiskrankenhaus Emmendingen,"Gartenstraße 44, 79312 Emmendingen",,,False,"Kreiskrankenhaus Emmendingen, 44, Gartenstraße, Kastelberg, Emmendingen (Kernstadt), Mundingen, Emmendingen, VVG der Stadt Emmendingen, Landkreis Emmendingen, Baden-Württemberg, 79312, Deutschland",48.1252505,7.855804,kreiskrankenhaus emmendingen
Vinzenz von Paul Hospital gGmbH,"Schwenninger Straße 55, 78628 Rottweil",,,False,"St. Vinzenz, 55, Schwenninger Straße, Rottweil (Kernstadt), Bühlingen, Rottweil, Verwaltungsgemeinschaft Rottweil, Landkreis Rottweil, Baden-Württemberg, 78628, Deutschland",48.1512843,8.6346707,vinzenz von paul hospital ggmbh
Kliniken des Landkreises Lörrach GmbH,"Spitalstraße  25, 79539 Lörrach",,,False,"25, Spitalstraße, Bulgarien-Viertel, Lörrach (Kernstadt), Untertüllingen, Lörrach, Verwaltungsgemeinschaft Lörrach, Landkreis Lörrach, Baden-Württemberg, 79539, Deutschland",47.6143504,7.6582598,kliniken des landkreises lörrach gmbh
Klinikum Hochrhein,"Kaiserstraße 93-101, 79761 Waldshut-Tiengen",,,False,"Klinikum Hochrhein, 93-101, Kaiserstraße, Waldshut, Waldshut-Tiengen, Verwaltungsgemeinschaft Waldshut-Tiengen, Landkreis Waldshut, Baden-Württemberg, 79761, Deutschland",47.6224982,8.2078557,klinikum hochrhein
Kliniken Schmieder Allensbach,"Zum Tafelholz 8, 78476 Allensbach",,,False,"Kliniken Schmieder Allensbach, 8, Zum Tafelholz, Allensbach (Ort), Allensbach, Verwaltungsgemeinschaft Konstanz, Landkreis Konstanz, Baden-Württemberg, 78476, Deutschland",47.7152636,9.0838266,kliniken schmieder allensbach
HELIOS Klinik Müllheim,"Heliosweg 1, 79379 Müllheim",,,False,"HELIOS Klinik Müllheim, 1, Heliosweg, Müllheim, Müllheim im Markgräflerland, GVV Müllheim-Badenweiler, Landkreis Breisgau-Hochschwarzwald, Baden-Württemberg, 79379, Deutschland",47.8115918,7.6349846,helios klinik müllheim
Klinikum Landkreis Tuttlingen gGmbH,"Zeppelinstrasse 21, 78532 Tuttlingen",,,False,"Kreisklinik Tuttlingen, 21, Zeppelinstraße, Tuttlingen, Verwaltungsgemeinschaft Tuttlingen, Landkreis Tuttlingen, Baden-Württemberg, 78532, Deutschland",47.9847695,8.8321038,klinikum landkreis tuttlingen ggmbh
QB_2023_Klinikum am Steinenberg,"Steinenbergstraße 31, 72764 Reutlingen",,,False,"Klinikum am Steinenberg, 31, Steinenbergstraße, Reutlingen (Kernstadt), Reutlingen, Landkreis Reutlingen, Baden-Württemberg, 72764, Deutschland",48.483878,9.218334,qb_2023_klinikum am steinenberg
Zollernalb Klinikum gGmbH,"Tübinger Straße 30, 72336 Balingen",,,False,"Zollernalb Klinikum, 30, Tübinger Straße, Balingen, Gemeindeverwaltungsverband Balingen, Zollernalbkreis, Baden-Württemberg, 72336, Deutschland",48.2775609,8.8572836,zollernalb klinikum ggmbh
SRH Krankenhaus Sigmaringen,"Hohenzollernstrasse 40, 72488 Sigmaringen",,,False,"Kreiskrankenhaus Sigmaringen, 40, Hohenzollernstraße, Sigmaringen, Gemeindeverwaltungsverband Sigmaringen, Landkreis Sigmaringen, Baden-Württemberg, 72488, Deutschland",48.0964403,9.2260292,srh krankenhaus sigmaringen
Helios Amper-Kliniken Dachau [DAH],"Krankenhausstraße 15, 85221 Dachau",,,False,"Helios Amper-Klinikum Dachau, 15, Krankenhausstraße, Steinkirchen, Webling, Dachau, Landkreis Dachau, Bayern, 85221, Deutschland",48.2654865,11.4281485,helios amper-kliniken dachau [dah]
Klinikum Landsberg am Lech,"Bgm.-Dr.-Hartmann-Str. 50, 86899 Landsberg am Lech",,,False,"Dr. Karsten Lohscheidt Orthopäde, 50, Bürgermeister-Doktor-Hartmann-Straße, Römerau, Landsberg am Lech, Landkreis Landsberg am Lech, Bayern, 86899, Deutschland",48.0480389,10.8566236,klinikum landsberg am lech
Benedictus Krankenhaus Tutzing GmbH & Co. KG,"Bahnhofstraße 5, 82327 Tutzing",,,False,"Benedictus Krankenhaus Tutzing, 5, Bahnhofstraße, Tutzing, Landkreis Starnberg, Bayern, 82327, Deutschland",47.9070263,11.276607,benedictus krankenhaus tutzing gmbh & co. kg
Ilmtalklinik GmbH,"Krankenhausstraße 70, 85276 Pfaffenhofen",,,False,"Eingang Liegendkranke, 70, Krankenhausstraße, Pfaffenhofen an der Ilm, Landkreis Pfaffenhofen an der Ilm, Bayern, 85276, Deutschland",48.5180908,11.4991655,ilmtalklinik gmbh
Rotthalmünster,"Simbacher Straße 35, 94094 Rotthalmünster",,,False,"35, Simbacher Straße, Dobl, Rotthalmünster, Rotthalmünster (VGem), Landkreis Passau, Bayern, 94094, Deutschland",48.3544981,13.2021468,rotthalmünster
Krankenhaus Freyung,"Krankenhausstraße 6, 94078 Freyung",,,False,"Krankenhaus Freyung, 6, Krankenhausstraße, Solla, Freyung, Landkreis Freyung-Grafenau, Bayern, 94078, Deutschland",48.8054935,13.5458475,krankenhaus freyung
Universitätsklinikum Regensburg,"Franz-Josef-Strauß-Allee 11, 93053 Regensburg",,,False,"11, Franz-Josef-Strauß-Allee, Graß, Regensburg, Bayern, 93053, Deutschland",48.9904494,12.0813806,universitätsklinikum regensburg
Klinikum Bayreuth GmbH,"Preuschwitzer Straße 101, 95445 Bayreuth",,,False,"Klinikum Bayreuth, 101, Preuschwitzer Straße, Roter Hügel, Oberpreuschwitz, Meyernberg, Bayreuth, Bayern, 95445, Deutschland",49.9436118,11.5323659,klinikum bayreuth gmbh
Krankenhaus Schwabach gGmbH,"Regelsbacher Straße 7, 91126 Schwabach",,,False,"Stadtkrankenhaus Schwabach, 7, Regelsbacher Straße, Nasbach, Unterreichenbach, Schwabach, Bayern, 91126, Deutschland",49.3328779,11.0127979,krankenhaus schwabach ggmbh
Kliniken des Landkreises Neustadt a. d. Aisch - Bad Windsheim,"Paracelsusstr. 30, 91413 Neustadt an der Aisch",,,False,"Klinik Neustadt, 30, Paracelsusstraße, Unterstrahlbach, Neustadt an der Aisch, Landkreis Neustadt an der Aisch-Bad Windsheim, Bayern, 91413, Deutschland",49.5819286,10.6223962,kliniken des landkreises neustadt a. d. aisch - bad windsheim
Helios Kliniken Miltenberg-Erlenbach GmbH ,"Krankenhausstraße 45, 63906 Erlenbach",,,False,"Helios Klinik Erlenbach, 45, Krankenhausstraße, Erlenbach, Erlenbach am Main, Landkreis Miltenberg, Bayern, 63906, Deutschland",49.8109038,9.1658383,helios kliniken miltenberg-erlenbach gmbh
Vivantes - Netzwerk für Gesundheit GmbH,"Aroser Allee 72-76, 13407 Berlin",,,False,"Vivantes, 72-76, Aroser Allee, Reinickendorf, Berlin, 13407, Deutschland",52.5640973,13.3534125,vivantes - netzwerk für gesundheit gmbh
Kreiskrankenhaus Prignitz gemeinnützige GmbH,"Dobberziner Str. 112, 19348 Perleberg",,,False,"112, Dobberziner Straße, Perleberg, Prignitz, Brandenburg, 19348, Deutschland",53.0739243,11.873565,kreiskrankenhaus prignitz gemeinnützige gmbh
Asklepios Fachklinikum Teupitz,"Buchholzer Straße 21, 15755 Teupitz",,,False,"Asklepios Fachklinikum Teupitz, 21, Buchholzer Straße, Teupitz, Schenkenländchen, Dahme-Spreewald, Brandenburg, 15755, Deutschland",52.1311604,13.6180181,asklepios fachklinikum teupitz
Asklepios Klinikum Uckermark GmbH,"Am Klinikum 1, 16303 Schwedt",,,False,"Asklepios Klinikum Uckermark, 1, Am Klinikum, Zentrum, Schwedt/Oder, Uckermark, Brandenburg, 16303, Deutschland",53.0532176,14.275758,asklepios klinikum uckermark gmbh
"Havelland Kliniken GmbH, Klinik Nauen","Ketziner Straße 21, 14641 Nauen",,,False,"21, Ketziner Straße, Nauen, Havelland, Brandenburg, 14641, Deutschland",52.6007689,12.8758899,"havelland kliniken gmbh, klinik nauen"
Asklepios Fachklinikum Brandenburg,"Anton-Saefkow-Allee 2, 14772 Brandenburg an der Havel",,,False,"Asklepios Fachklinikum Brandenburg, 2, Anton-Saefkow-Allee, Heidekrug, Brandenburg an der Havel, Brandenburg, 14772, Deutschland",52.4236539,12.4801181,asklepios fachklinikum brandenburg
HELIOS Klinikum Bad Saarow,"Pieskower Straße 33, 15526 Bad Saarow",,,False,"Helios Klinikum Bad Saarow, 33, Pieskower Straße, Bad Saarow, Scharmützelsee, Oder-Spree, Brandenburg, 15526, Deutschland",52.2837363,14.0626258,helios klinikum bad saarow
Klinikum Südstadt Rostock,"Südring 81, 18059 Rostock",,,False,"81, Südring, Südstadt, Ortsbeirat 12 : Südstadt, Rostock, Mecklenburg-Vorpommern, 18059, Deutschland",54.0717274,12.1066615,klinikum südstadt rostock
Universitätsmedizin Rostock - Teilkörperschaft der Universität Rostock,"Schillingallee 35, 18057 Rostock",,,False,"35, Schillingallee, Sportforum, Hansaviertel, Rostock, Mecklenburg-Vorpommern, 18057, Deutschland",54.0848186,12.0982791,universitätsmedizin rostock - teilkörperschaft der universität rostock
Rudolf Virchow Klinikum Glauchau,"Virchowstraße 18, 08371 Glauchau",,,False,"Fremdsprachenkindertageseinrichtung „Firlefanz und Wirbelwind“, 18, Virchowstraße, Glauchau, Zwickau, Sachsen, 08371, Deutschland",50.8119096,12.5516334,rudolf virchow klinikum glauchau
Heinrich-Braun-Klinikum Zwickau Standort Werdauer Straße,"Werdauer Straße 68, 08060 Zwickau",,,False,"Heinrich-Braun-Klinikum, Standort Werdauer Straße, 68, Werdauer Straße, Marienthal Ost, Zwickau-West, Zwickau, Langenweißbach, Zwickau, Sachsen, 08060, Deutschland",50.7223864,12.4717234,heinrich-braun-klinikum zwickau standort werdauer straße
"Heinrich-Braun-Klinikum gemeinnützige GmbH, Standort Zwickau","Karl-Keil-Straße 35, 08060 Zwickau",,,False,"Heinrich-Braun-Krankenhaus, 35, Karl-Keil-Straße, Marienthal West, Zwickau-West, Zwickau, Sachsen, 08060, Deutschland",50.7225016,12.4311037,"heinrich-braun-klinikum gemeinnützige gmbh, standort zwickau"
Sächsisches Krankenhaus Rodewisch,"Bahnhofstraße 1, 08228 Rodewisch",,,False,"1, Bahnhofstraße, Rodewisch, Vogtlandkreis, Sachsen, 08228, Deutschland",50.5314669,12.4034892,sächsisches krankenhaus rodewisch
Erzgebirgsklinikum gGmbH - Haus Annaberg,"Chemnitzer Straße 15, 09456 Annaberg-Buchholz",,,False,"15, Chemnitzer Straße, Annaberg, Annaberg-Buchholz, Erzgebirgskreis, Sachsen, 09456, Deutschland",50.592103,13.0067172,erzgebirgsklinikum ggmbh - haus annaberg
Sächsisches Krankenhaus Arnsdorf,"Hufelandstraße 15, 01477 Arnsdorf",,,False,"C1 / Patientenanmeldung/ Verwaltung, 15, Hufelandstraße, Dr.-Kurt-Fischer-Siedlung, Fischbach, Arnsdorf, Bautzen - Budyšin, Sachsen, 01477, Deutschland",51.0934217,13.9963627,sächsisches krankenhaus arnsdorf
Sana Kliniken Leipziger Land,"Rudolf-Virchow-Straße 2, 04552 Borna",,,False,"Klinikum Borna, 2, Rudolf-Virchow-Straße, Kesselshain Siedlung, Borna, Landkreis Leipzig, Sachsen, 04552, Deutschland",51.1346458,12.505405,sana kliniken leipziger land
Klinikum Chemnitz gGmbH,"Flemmingstraße 2, 09116 Chemnitz",,,False,"2, Flemmingstraße, Altendorf, Chemnitz, Lichtenau, Sachsen, 09116, Deutschland",50.8447689,12.8861281,klinikum chemnitz ggmbh
Gesundheitszentrum Bitterfeld/Wolfen gGmbH,"Friedrich-Ludwig-Jahn-Str. 2, 06749 Bitterfeld-Wolfen",,,False,"Goitzsche Klinikum, 2, Friedrich-Ludwig-Jahn-Straße, Bitterfeld, Bitterfeld-Wolfen, Anhalt-Bitterfeld, Sachsen-Anhalt, 06749, Deutschland",51.6337829,12.3338134,gesundheitszentrum bitterfeld/wolfen ggmbh
Carl-von-Basedow-Klinikum Saalekreis gGmbH,"Weiße Mauer  52, 06217 Merseburg",,,False,"Carl-von-Basedow-Klinikum, 52, Weiße Mauer, Altenburg (Vorstadt), Merseburg, Saalekreis, Sachsen-Anhalt, 06217, Deutschland",51.3663738,11.9938967,carl-von-basedow-klinikum saalekreis ggmbh
Paul Gerhardt Diakonie Krankenhaus und Pflege GmbH,"Paul-Gerhardt-Straße 42-45, 06886 Lutherstadt Wittenberg",,,False,"Ev. Krankenhaus Paul Gerhardt Stift, 42-45, Paul-Gerhardt-Straße, Lindenfeld, Wittenberg, Sachsen-Anhalt, 06886, Deutschland",51.8703045,12.6567485,paul gerhardt diakonie krankenhaus und pflege gmbh
Städtisches Klinikum Dessau,"Auenweg 38, 06847 Dessau-Roßlau",,,False,"Städtisches Klinikum Dessau - Standort Auenweg, 38, Auenweg, Zoberberg, Alten, Dessau, Dessau-Roßlau, Sachsen-Anhalt, 06847, Deutschland",51.8159148,12.1976598,städtisches klinikum dessau
HELIOS Klinik Sangerhausen,"Am Beinschuh 2a, 06526 Sangerhausen",,,False,"HELIOS Klinik Sangerhausen Mansfeld-Südharz, 2a, Am Beinschuh, Othal, Sangerhausen, Mansfeld-Südharz, Sachsen-Anhalt, 06526, Deutschland",51.4720228,11.3096056,helios klinik sangerhausen
AMEOS Klinikum Haldensleben,"Kiefholzstraße 27, 39340 Haldensleben",,,False,"AMEOS Klinikum Haldensleben, 27, Kiefholzstraße, Haldensleben, Börde, Sachsen-Anhalt, 39340, Deutschland",52.2856623,11.3769031,ameos klinikum haldensleben
Asklepios Klinik Weißenfels,"Naumburger Straße 76, 06667 Weißenfels",,,False,"Klinik Weißenfels, 76, Naumburger Straße, Neustadt, Weißenfels, Burgenlandkreis, Sachsen-Anhalt, 06667, Deutschland",51.1939105,11.9568078,asklepios klinik weißenfels
Hufeland Klinikum GmbH,"Gutenbergstraße 24, 99947 Bad Langensalza",,,False,"Gutenbergstraße, 24, Bad Langensalza, Landkreis Gotha, Thüringen, 99947, Deutschland",51.1043615,10.6485978,hufeland klinikum gmbh
Eichsfeld Klinikum gGmbH,"Im Kloster 7, 37355 Niederorschel",,,False,"Eichsfeld Klinikum Haus Reifenstein, 7, Im Kloster, Kleinbartloff, Niederorschel, Landkreis Eichsfeld, Thüringen, 37355, Deutschland",51.3473906,10.3635263,eichsfeld klinikum ggmbh
